{"type": "FeatureCollection", "features": [{"type": "Feature", "properties": {"kind": "lake", "i": 0}, "geometry": {"type": "Polygon", "coordinates": [[[135.86017, 35.01418], [135.87339, 35.00696], [135.89543, 34.99793], [135.90865, 34.98349], [135.90865, 35.00154], [135.91526, 35.01599], [135.91526, 35.02862], [135.91085, 35.04305], [135.92848, 35.05749], [135.93069, 35.07552], [135.94171, 35.07011], [135.94171, 35.08635], [135.94171, 35.1188], [135.96374, 35.1224], [135.97697, 35.12601], [135.98137, 35.13142], [136.00782, 35.13502], [136.01884, 35.14764], [136.06071, 35.14403], [136.06071, 35.15845], [136.06291, 35.17466], [136.06953, 35.18907], [136.08936, 35.19808], [136.09156, 35.20528], [136.1114, 35.20708], [136.15547, 35.22868], [136.22599, 35.26828], [136.24362, 35.28447], [136.26786, 35.32044], [136.27668, 35.34202], [136.26566, 35.37257], [136.25905, 35.37616], [136.22599, 35.38694], [136.21497, 35.38694], [136.21718, 35.39593], [136.19514, 35.42646], [136.18853, 35.44442], [136.19955, 35.45519], [136.19294, 35.46955], [136.19073, 35.48391], [136.17531, 35.49826], [136.15988, 35.51261], [136.16208, 35.49826], [136.15547, 35.48391], [136.15106, 35.46416], [136.15547, 35.45339], [136.14005, 35.44442], [136.12682, 35.45698], [136.12242, 35.46955], [136.12682, 35.4857], [136.11801, 35.48749], [136.10038, 35.4516], [136.08054, 35.46237], [136.06291, 35.45519], [136.04088, 35.43544], [136.04528, 35.4103], [136.03647, 35.39952], [136.03647, 35.37796], [136.07173, 35.33303], [136.07834, 35.31684], [136.07393, 35.31505], [136.06071, 35.31684], [136.02986, 35.30426], [136.01884, 35.27907], [135.99239, 35.26468], [135.96374, 35.24308], [135.9395, 35.21248], [135.92408, 35.19988], [135.9373, 35.15664], [135.92628, 35.13142], [135.92408, 35.11519], [135.91526, 35.10257], [135.90424, 35.10077], [135.90645, 35.09176], [135.89102, 35.07913], [135.88661, 35.06831], [135.88, 35.0629], [135.87559, 35.05388], [135.86678, 35.03223], [135.86017, 35.01418], [135.86017, 35.01418]]]}}, {"type": "Feature", "properties": {"kind": "lake", "i": 1}, "geometry": {"type": "Polygon", "coordinates": [[[140.206, 36.0739], [140.21922, 36.0739], [140.22803, 36.0454], [140.23244, 36.04362], [140.25889, 36.03471], [140.27872, 36.03471], [140.31618, 36.03114], [140.3228, 36.02579], [140.35365, 36.02758], [140.35365, 36.02401], [140.37348, 36.00975], [140.37569, 36.00262], [140.37128, 36.00084], [140.35585, 35.99549], [140.34483, 35.99014], [140.35365, 35.97231], [140.34483, 35.97052], [140.3272, 35.9616], [140.325, 35.95804], [140.33161, 35.95447], [140.34043, 35.95982], [140.35365, 35.97052], [140.35365, 35.97231], [140.34924, 35.97587], [140.36467, 35.98301], [140.38891, 35.98301], [140.39993, 35.99014], [140.40433, 35.99014], [140.45061, 35.97409], [140.444, 35.97409], [140.46824, 35.95982], [140.45723, 35.95625], [140.45282, 35.94555], [140.45282, 35.94198], [140.46163, 35.95625], [140.48367, 35.95804], [140.49028, 35.95269], [140.4991, 35.9616], [140.50791, 35.95982], [140.5013, 35.97231], [140.49689, 35.97944], [140.47486, 35.98657], [140.46604, 36.00975], [140.45061, 36.02936], [140.44621, 36.03649], [140.41976, 36.06678], [140.41756, 36.07568], [140.41535, 36.08637], [140.40213, 36.1024], [140.39552, 36.10596], [140.39552, 36.12376], [140.3867, 36.1291], [140.36687, 36.14868], [140.35806, 36.15046], [140.35144, 36.13978], [140.34483, 36.13978], [140.325, 36.15402], [140.31839, 36.15935], [140.30517, 36.16113], [140.30737, 36.15046], [140.32059, 36.14512], [140.33602, 36.13622], [140.33381, 36.1291], [140.36026, 36.11664], [140.3823, 36.10418], [140.37569, 36.10062], [140.37569, 36.09705], [140.38891, 36.08103], [140.3823, 36.07568], [140.36907, 36.06143], [140.33161, 36.05965], [140.30517, 36.06856], [140.27652, 36.06678], [140.24126, 36.07034], [140.23685, 36.08281], [140.22583, 36.08637], [140.21481, 36.08281], [140.2082, 36.07925], [140.21922, 36.07568], [140.206, 36.0739], [140.206, 36.0739]]]}}, {"type": "Feature", "properties": {"kind": "lake", "i": 2}, "geometry": {"type": "Polygon", "coordinates": [[[140.01868, 37.50689], [140.02088, 37.50514], [140.02088, 37.49815], [140.02529, 37.4964], [140.02749, 37.4929], [140.0319, 37.49115], [140.02969, 37.48591], [140.0319, 37.48241], [140.0319, 37.48066], [140.02969, 37.47891], [140.03631, 37.47716], [140.04292, 37.48416], [140.04292, 37.47716], [140.04732, 37.47367], [140.04732, 37.45967], [140.05834, 37.44918], [140.06495, 37.44918], [140.06275, 37.44568], [140.06936, 37.44218], [140.06716, 37.43868], [140.07157, 37.42818], [140.07818, 37.42643], [140.07818, 37.42118], [140.09581, 37.41943], [140.09581, 37.41593], [140.10022, 37.41593], [140.10683, 37.41768], [140.10903, 37.41418], [140.11785, 37.41418], [140.14209, 37.43168], [140.15311, 37.44918], [140.1509, 37.45617], [140.15531, 37.46492], [140.1487, 37.47891], [140.15311, 37.48416], [140.15531, 37.48941], [140.14649, 37.4929], [140.14209, 37.50339], [140.13768, 37.50165], [140.13107, 37.50514], [140.11785, 37.50514], [140.11123, 37.51039], [140.11564, 37.52087], [140.11123, 37.53136], [140.08258, 37.53311], [140.06495, 37.53311], [140.04732, 37.52437], [140.04512, 37.51738], [140.03631, 37.51738], [140.0341, 37.51213], [140.02969, 37.51213], [140.02308, 37.51738], [140.02308, 37.51213], [140.01868, 37.50689], [140.01868, 37.50689]]]}}, {"type": "Feature", "properties": {"kind": "lake", "i": 3}, "geometry": {"type": "Polygon", "coordinates": [[[133.12529, 35.46057], [133.13852, 35.45339], [133.15615, 35.44801], [133.16496, 35.44621], [133.17598, 35.43544], [133.20022, 35.43544], [133.20463, 35.44621], [133.21565, 35.44442], [133.21785, 35.45519], [133.22226, 35.45339], [133.22006, 35.45519], [133.23769, 35.4498], [133.23989, 35.44262], [133.25311, 35.43544], [133.25972, 35.43005], [133.25752, 35.43364], [133.26854, 35.43724], [133.27735, 35.43544], [133.29278, 35.42826], [133.30159, 35.43185], [133.30159, 35.42826], [133.31041, 35.41209], [133.30159, 35.41569], [133.29278, 35.41928], [133.29498, 35.41389], [133.31041, 35.4103], [133.32143, 35.41209], [133.32584, 35.42287], [133.31922, 35.42646], [133.31922, 35.43185], [133.31922, 35.43364], [133.29939, 35.43724], [133.3038, 35.44083], [133.29719, 35.43903], [133.28837, 35.44621], [133.28176, 35.4498], [133.27515, 35.4498], [133.26633, 35.45878], [133.26633, 35.46057], [133.25752, 35.47134], [133.2487, 35.47673], [133.23328, 35.48929], [133.22446, 35.48749], [133.23107, 35.49288], [133.23107, 35.49467], [133.21785, 35.50723], [133.20463, 35.51799], [133.20242, 35.52517], [133.20022, 35.52158], [133.20242, 35.53234], [133.20463, 35.53234], [133.19361, 35.53414], [133.19581, 35.53055], [133.18479, 35.52876], [133.18039, 35.53772], [133.17818, 35.53593], [133.18039, 35.53414], [133.17818, 35.53234], [133.17818, 35.53414], [133.16276, 35.53234], [133.16055, 35.53772], [133.15394, 35.53055], [133.15394, 35.53414], [133.16055, 35.53593], [133.16276, 35.53234], [133.18259, 35.52158], [133.18039, 35.52517], [133.16055, 35.53593], [133.15615, 35.53772], [133.15394, 35.53234], [133.15174, 35.52876], [133.14953, 35.51979], [133.14513, 35.52158], [133.13631, 35.5162], [133.1319, 35.51441], [133.13631, 35.49288], [133.1319, 35.48929], [133.14513, 35.47673], [133.13852, 35.46955], [133.12529, 35.46057], [133.12529, 35.46057]]]}}, {"type": "Feature", "properties": {"kind": "lake", "i": 4}, "geometry": {"type": "Polygon", "coordinates": [[[132.86525, 35.41209], [132.90051, 35.41928], [132.8961, 35.41209], [132.90271, 35.40671], [132.90932, 35.41209], [132.91594, 35.41389], [132.92034, 35.41209], [132.92695, 35.41748], [132.94018, 35.41928], [132.94238, 35.42287], [132.94899, 35.42107], [132.9556, 35.42107], [132.95781, 35.42467], [132.97323, 35.42287], [132.98646, 35.43185], [132.99747, 35.43005], [133.00409, 35.43185], [133.00849, 35.43903], [133.01731, 35.43544], [133.03494, 35.43724], [133.04375, 35.44442], [133.05037, 35.45878], [133.05477, 35.46596], [133.03935, 35.46416], [133.02172, 35.47314], [133.01731, 35.47134], [133.00849, 35.47493], [133.00409, 35.47493], [132.99527, 35.47314], [132.97103, 35.48032], [132.96221, 35.48032], [132.9512, 35.47314], [132.94899, 35.47493], [132.92916, 35.47134], [132.92034, 35.46416], [132.91373, 35.46416], [132.90051, 35.45878], [132.89831, 35.46057], [132.87847, 35.46057], [132.86745, 35.45339], [132.86745, 35.44801], [132.86966, 35.44442], [132.87627, 35.44442], [132.88068, 35.43724], [132.87847, 35.42826], [132.88508, 35.42467], [132.88508, 35.41928], [132.86525, 35.41209], [132.86525, 35.41209]]]}}, {"type": "Feature", "properties": {"kind": "lake", "i": 5}, "geometry": {"type": "Polygon", "coordinates": [[[144.25872, 43.60776], [144.26313, 43.59658], [144.27195, 43.5886], [144.27856, 43.58382], [144.28958, 43.58222], [144.29398, 43.57743], [144.305, 43.57583], [144.31161, 43.58062], [144.30721, 43.58541], [144.31822, 43.58541], [144.31161, 43.57743], [144.32263, 43.57264], [144.32263, 43.56466], [144.32263, 43.55987], [144.32704, 43.55827], [144.33585, 43.55827], [144.34247, 43.56306], [144.34026, 43.56785], [144.34908, 43.58062], [144.34908, 43.59978], [144.3601, 43.61095], [144.35789, 43.61733], [144.3623, 43.63169], [144.37552, 43.64126], [144.37993, 43.64764], [144.39095, 43.64445], [144.41078, 43.64764], [144.41519, 43.65401], [144.41519, 43.66517], [144.41078, 43.66836], [144.39976, 43.66836], [144.39095, 43.67474], [144.37773, 43.67155], [144.36671, 43.67474], [144.34247, 43.67155], [144.31822, 43.67155], [144.30941, 43.66199], [144.3028, 43.6588], [144.29398, 43.66039], [144.27856, 43.65401], [144.27635, 43.64923], [144.27635, 43.64126], [144.26974, 43.63647], [144.26754, 43.63328], [144.26974, 43.6285], [144.26093, 43.61892], [144.25872, 43.60776], [144.25872, 43.60776]]]}}, {"type": "Feature", "properties": {"kind": "lake", "i": 6}, "geometry": {"type": "Polygon", "coordinates": [[[141.25058, 42.75285], [141.2594, 42.73828], [141.26601, 42.73019], [141.2616, 42.72371], [141.2638, 42.72048], [141.29686, 42.70428], [141.30347, 42.70428], [141.3211, 42.71724], [141.32551, 42.71886], [141.33212, 42.72695], [141.34314, 42.73505], [141.35857, 42.73828], [141.37399, 42.73505], [141.38281, 42.74152], [141.40705, 42.74314], [141.40925, 42.74638], [141.40264, 42.75447], [141.40264, 42.77065], [141.39823, 42.77712], [141.38721, 42.78035], [141.35857, 42.79814], [141.33873, 42.80461], [141.32771, 42.80299], [141.32331, 42.79491], [141.31449, 42.78844], [141.31229, 42.78197], [141.30347, 42.7755], [141.30347, 42.76903], [141.29466, 42.76741], [141.29025, 42.76903], [141.28364, 42.76579], [141.28143, 42.77065], [141.2638, 42.77065], [141.25719, 42.76418], [141.25058, 42.75285], [141.25058, 42.75285]]]}}, {"type": "Feature", "properties": {"kind": "lake", "i": 7}, "geometry": {"type": "Polygon", "coordinates": [[[140.78999, 42.59731], [140.7922, 42.59244], [140.79881, 42.57134], [140.80542, 42.57134], [140.80542, 42.5681], [140.80983, 42.56648], [140.82525, 42.56648], [140.84288, 42.56485], [140.84729, 42.56161], [140.84509, 42.55836], [140.84729, 42.56161], [140.85831, 42.55674], [140.87594, 42.55836], [140.87814, 42.55998], [140.87814, 42.56323], [140.88035, 42.56485], [140.88476, 42.56323], [140.89357, 42.57134], [140.90239, 42.57297], [140.90679, 42.5827], [140.91781, 42.59082], [140.92222, 42.59731], [140.92222, 42.60379], [140.92002, 42.61028], [140.91561, 42.6119], [140.9112, 42.61839], [140.90459, 42.62164], [140.90239, 42.62812], [140.89577, 42.63299], [140.89137, 42.63461], [140.88476, 42.64109], [140.86713, 42.64596], [140.85611, 42.63947], [140.8517, 42.63947], [140.84509, 42.64433], [140.83627, 42.64758], [140.82746, 42.64433], [140.82525, 42.63947], [140.81864, 42.63461], [140.81864, 42.6265], [140.81203, 42.62326], [140.80983, 42.61839], [140.80322, 42.61677], [140.80322, 42.61028], [140.78999, 42.60704], [140.78999, 42.59731], [140.78999, 42.59731]]]}}, {"type": "Feature", "properties": {"kind": "lake", "i": 8}, "geometry": {"type": "Polygon", "coordinates": [[[137.51299, 34.75748], [137.5196, 34.75567], [137.52842, 34.75567], [137.53283, 34.75929], [137.52842, 34.75024], [137.53283, 34.74843], [137.53723, 34.74662], [137.52842, 34.73213], [137.52842, 34.72307], [137.53723, 34.72488], [137.54385, 34.71764], [137.55266, 34.72307], [137.55707, 34.71402], [137.55707, 34.70858], [137.56588, 34.70677], [137.56588, 34.70133], [137.56368, 34.6959], [137.58351, 34.6959], [137.58792, 34.68321], [137.59674, 34.67959], [137.59894, 34.67959], [137.60775, 34.68503], [137.60555, 34.68684], [137.61437, 34.70133], [137.61877, 34.70496], [137.61877, 34.71039], [137.62318, 34.71764], [137.64302, 34.73575], [137.6364, 34.73937], [137.64742, 34.75567], [137.65183, 34.75748], [137.64742, 34.7611], [137.632, 34.75386], [137.62318, 34.73213], [137.60775, 34.73394], [137.59894, 34.72126], [137.58792, 34.72488], [137.59233, 34.73937], [137.60996, 34.75748], [137.61216, 34.76653], [137.61657, 34.77015], [137.61657, 34.76472], [137.62759, 34.76472], [137.62759, 34.76834], [137.61657, 34.77558], [137.62538, 34.77558], [137.64302, 34.78282], [137.64302, 34.78644], [137.64522, 34.79006], [137.64522, 34.79368], [137.62979, 34.7973], [137.62318, 34.79911], [137.62098, 34.79549], [137.61657, 34.78825], [137.61657, 34.78463], [137.60555, 34.7792], [137.59894, 34.78825], [137.59453, 34.78463], [137.57911, 34.78101], [137.57029, 34.77739], [137.55927, 34.7611], [137.55707, 34.76653], [137.54825, 34.77015], [137.56368, 34.77558], [137.56368, 34.78101], [137.56588, 34.78644], [137.57029, 34.79187], [137.57249, 34.79549], [137.56148, 34.79368], [137.55266, 34.79911], [137.55266, 34.80273], [137.54825, 34.80092], [137.54825, 34.79006], [137.54385, 34.78644], [137.54825, 34.78644], [137.54385, 34.77558], [137.53283, 34.76653], [137.53062, 34.75929], [137.52622, 34.76472], [137.51299, 34.75748], [137.51299, 34.75748]]]}}, {"type": "Feature", "properties": {"kind": "lake", "i": 9}, "geometry": {"type": "Polygon", "coordinates": [[[141.27703, 40.74224], [141.28143, 40.72889], [141.28805, 40.72722], [141.28805, 40.72388], [141.29025, 40.72054], [141.29686, 40.72054], [141.29906, 40.72054], [141.29686, 40.71719], [141.30788, 40.71719], [141.31229, 40.72054], [141.32551, 40.72722], [141.33212, 40.72722], [141.34534, 40.72054], [141.35195, 40.72388], [141.35857, 40.73557], [141.36077, 40.75226], [141.35636, 40.77229], [141.34755, 40.77897], [141.34755, 40.804], [141.35195, 40.81234], [141.35857, 40.81567], [141.36518, 40.82735], [141.36738, 40.84068], [141.35857, 40.84402], [141.33653, 40.84235], [141.32551, 40.84735], [141.32992, 40.84902], [141.32771, 40.85235], [141.31449, 40.84735], [141.30788, 40.83068], [141.29906, 40.82234], [141.29686, 40.814], [141.31008, 40.77897], [141.31669, 40.77396], [141.3189, 40.76395], [141.32551, 40.75894], [141.32551, 40.75393], [141.31669, 40.74892], [141.30788, 40.74892], [141.30347, 40.74558], [141.29906, 40.74892], [141.29025, 40.75059], [141.28364, 40.7556], [141.28805, 40.74725], [141.27703, 40.74224], [141.27703, 40.74224]]]}}, {"type": "Feature", "properties": {"kind": "lake", "i": 10}, "geometry": {"type": "Polygon", "coordinates": [[[140.82746, 40.47791], [140.83627, 40.46617], [140.83848, 40.45947], [140.84509, 40.45611], [140.84068, 40.45108], [140.84068, 40.44773], [140.84509, 40.4427], [140.84729, 40.43599], [140.85611, 40.43096], [140.85831, 40.41921], [140.86713, 40.41418], [140.87374, 40.41586], [140.87594, 40.4125], [140.88255, 40.41418], [140.89357, 40.42089], [140.89137, 40.43096], [140.88476, 40.43599], [140.87814, 40.43599], [140.88035, 40.44102], [140.87594, 40.44605], [140.87594, 40.45108], [140.87814, 40.44941], [140.88035, 40.44605], [140.88476, 40.44605], [140.88476, 40.4427], [140.88916, 40.43599], [140.89798, 40.43263], [140.90679, 40.43263], [140.91341, 40.43766], [140.91561, 40.44437], [140.9112, 40.45444], [140.90239, 40.45779], [140.90679, 40.4645], [140.9112, 40.46617], [140.92222, 40.4645], [140.92222, 40.45947], [140.91561, 40.45276], [140.92222, 40.45108], [140.92883, 40.44773], [140.93104, 40.44605], [140.93765, 40.44773], [140.93765, 40.45444], [140.94426, 40.45611], [140.94426, 40.46282], [140.93985, 40.46785], [140.94205, 40.47791], [140.93324, 40.48294], [140.92663, 40.49132], [140.92002, 40.49299], [140.92222, 40.49635], [140.91561, 40.50305], [140.89798, 40.50305], [140.89137, 40.4997], [140.87153, 40.49635], [140.86272, 40.4997], [140.84729, 40.49635], [140.83407, 40.48964], [140.83187, 40.48461], [140.82746, 40.47791], [140.82746, 40.47791]]]}}, {"type": "Feature", "properties": {"kind": "lake", "i": 11}, "geometry": {"type": "Polygon", "coordinates": [[[144.09785, 44.02913], [144.10005, 44.02438], [144.10446, 44.02279], [144.10226, 44.01963], [144.11327, 44.01487], [144.11548, 44.01646], [144.11989, 44.01329], [144.1265, 44.0117], [144.1309, 44.0117], [144.15074, 44.01646], [144.17939, 44.0323], [144.17718, 44.03547], [144.186, 44.04814], [144.19041, 44.04656], [144.19261, 44.04973], [144.19702, 44.06715], [144.19702, 44.07665], [144.19041, 44.08456], [144.19261, 44.09564], [144.1882, 44.09723], [144.19041, 44.10197], [144.186, 44.10356], [144.18379, 44.10197], [144.18379, 44.09881], [144.17939, 44.09881], [144.18159, 44.09881], [144.17057, 44.09723], [144.13311, 44.09406], [144.11327, 44.08931], [144.11327, 44.07665], [144.10887, 44.06715], [144.10887, 44.06398], [144.10446, 44.0529], [144.10005, 44.03706], [144.09785, 44.02913], [144.09785, 44.02913]]]}}, {"type": "Feature", "properties": {"kind": "lake", "i": 12}, "geometry": {"type": "Polygon", "coordinates": [[[140.51452, 36.14156], [140.52334, 36.1291], [140.51893, 36.12198], [140.52775, 36.11308], [140.52334, 36.10596], [140.52995, 36.1024], [140.52113, 36.09527], [140.53876, 36.08637], [140.53656, 36.07925], [140.53656, 36.07212], [140.52995, 36.07212], [140.52775, 36.06856], [140.54758, 36.06143], [140.54758, 36.05787], [140.54317, 36.05431], [140.55639, 36.0454], [140.55199, 36.03827], [140.54538, 36.04005], [140.53656, 36.04005], [140.54317, 36.03471], [140.5608, 36.02936], [140.55419, 36.01866], [140.54978, 36.01332], [140.54317, 36.01153], [140.53876, 36.0151], [140.54758, 36.00619], [140.55419, 36.0044], [140.56301, 36.00084], [140.58064, 35.98479], [140.58725, 35.98122], [140.58284, 35.97944], [140.57843, 35.97587], [140.58945, 35.9616], [140.60267, 35.95804], [140.60929, 35.96339], [140.60267, 35.97052], [140.59606, 35.96874], [140.60488, 35.98479], [140.60047, 35.98836], [140.59827, 35.99371], [140.59606, 35.99727], [140.59606, 36.00262], [140.58064, 36.00975], [140.57843, 36.01866], [140.58504, 36.02223], [140.58504, 36.02579], [140.57843, 36.02579], [140.57182, 36.02936], [140.57623, 36.03649], [140.56962, 36.04362], [140.57182, 36.05074], [140.56962, 36.05431], [140.5586, 36.05787], [140.5608, 36.06143], [140.55639, 36.07034], [140.54978, 36.07212], [140.54317, 36.07925], [140.54097, 36.09349], [140.53436, 36.09527], [140.53656, 36.10062], [140.53436, 36.10774], [140.53436, 36.11308], [140.53436, 36.11664], [140.52995, 36.11842], [140.53215, 36.12198], [140.52775, 36.12554], [140.52554, 36.13266], [140.51452, 36.14156], [140.51452, 36.14156]]]}}, {"type": "Feature", "properties": {"kind": "lake", "i": 13}, "geometry": {"type": "Polygon", "coordinates": [[[144.12429, 43.94034], [144.1265, 43.93716], [144.13531, 43.93716], [144.14633, 43.94192], [144.15074, 43.93399], [144.15955, 43.93557], [144.15955, 43.9324], [144.16176, 43.92923], [144.16616, 43.92764], [144.16176, 43.92764], [144.15735, 43.92605], [144.16176, 43.92288], [144.16176, 43.92129], [144.16176, 43.91811], [144.17718, 43.9197], [144.18159, 43.92446], [144.17718, 43.93557], [144.18159, 43.94351], [144.17718, 43.95144], [144.1882, 43.9562], [144.19702, 43.9562], [144.20143, 43.96096], [144.19481, 43.96731], [144.19702, 43.97682], [144.20143, 43.97999], [144.19702, 43.98317], [144.19922, 43.98951], [144.20363, 43.99426], [144.21685, 43.99743], [144.21244, 43.99426], [144.21244, 43.98951], [144.21024, 43.98158], [144.21465, 43.97524], [144.21685, 43.98317], [144.22126, 43.98475], [144.21906, 43.99109], [144.22346, 43.99426], [144.22126, 43.99902], [144.22567, 44.00219], [144.21024, 44.00695], [144.19041, 44.00695], [144.18159, 44.00061], [144.16837, 43.99743], [144.14853, 43.96413], [144.1309, 43.95303], [144.12429, 43.94034], [144.12429, 43.94034]]]}}, {"type": "Feature", "properties": {"kind": "lake", "i": 14}, "geometry": {"type": "Polygon", "coordinates": [[[140.62912, 39.72272], [140.63573, 39.71086], [140.65336, 39.69729], [140.66879, 39.70407], [140.68421, 39.70238], [140.68862, 39.71764], [140.69964, 39.72781], [140.69523, 39.73628], [140.67981, 39.74645], [140.64675, 39.75153], [140.63793, 39.74814], [140.62912, 39.72272], [140.62912, 39.72272]]]}}, {"type": "Feature", "properties": {"kind": "lake", "i": 15}, "geometry": {"type": "Polygon", "coordinates": [[[142.16955, 44.33415], [142.1982, 44.32469], [142.18277, 44.32785], [142.18939, 44.32154], [142.1982, 44.31996], [142.18718, 44.31839], [142.17837, 44.32154], [142.18277, 44.31839], [142.18939, 44.31523], [142.18498, 44.3105], [142.18057, 44.31208], [142.18057, 44.30892], [142.18277, 44.30735], [142.18277, 44.29946], [142.18718, 44.29631], [142.19379, 44.29631], [142.20481, 44.29315], [142.20481, 44.29631], [142.22024, 44.29631], [142.22465, 44.30262], [142.21803, 44.30262], [142.22244, 44.30735], [142.21142, 44.30419], [142.22685, 44.3105], [142.24007, 44.30419], [142.24668, 44.30577], [142.24889, 44.30735], [142.2577, 44.30892], [142.24668, 44.30892], [142.23567, 44.30735], [142.24007, 44.31208], [142.23787, 44.31366], [142.23787, 44.31681], [142.24448, 44.32627], [142.24668, 44.331], [142.24228, 44.33257], [142.23567, 44.33573], [142.23787, 44.34203], [142.23126, 44.33573], [142.22905, 44.331], [142.22244, 44.31996], [142.22465, 44.32627], [142.22465, 44.32942], [142.22465, 44.331], [142.22024, 44.331], [142.22024, 44.33573], [142.20922, 44.34834], [142.21363, 44.35306], [142.22024, 44.35622], [142.22465, 44.36724], [142.22905, 44.36567], [142.23567, 44.36567], [142.25109, 44.36094], [142.2555, 44.36252], [142.24889, 44.36567], [142.23787, 44.36567], [142.22465, 44.36724], [142.21583, 44.36724], [142.22244, 44.36882], [142.21583, 44.36409], [142.20922, 44.36567], [142.20261, 44.36882], [142.18498, 44.37355], [142.19159, 44.37197], [142.20261, 44.36567], [142.20261, 44.35937], [142.21583, 44.35779], [142.21363, 44.35464], [142.20922, 44.35622], [142.19159, 44.35622], [142.19159, 44.34991], [142.196, 44.34991], [142.19379, 44.34518], [142.19379, 44.34046], [142.19159, 44.33257], [142.17837, 44.34834], [142.18498, 44.33415], [142.17616, 44.33888], [142.17176, 44.34046], [142.16955, 44.33415], [142.16955, 44.33415]]]}}, {"type": "Feature", "properties": {"kind": "river", "i": 0}, "geometry": {"type": "LineString", "coordinates": [[142.33704, 43.77825], [142.32602, 43.78144], [142.3128, 43.78939], [142.29737, 43.7878], [142.27754, 43.77348], [142.27533, 43.76075], [142.27313, 43.75597], [142.2555, 43.75438], [142.24448, 43.75757], [142.24007, 43.7512], [142.24007, 43.73687], [142.21803, 43.72732], [142.2004, 43.73209], [142.17616, 43.7305], [142.17176, 43.72572], [142.17616, 43.71776], [142.16955, 43.71457], [142.14531, 43.72732], [142.14311, 43.72094], [142.11446, 43.7082], [142.08801, 43.7082], [142.0814, 43.70342], [142.07479, 43.70502], [142.06377, 43.71457], [142.04614, 43.71457], [142.03953, 43.7082], [142.03071, 43.68908], [142.01749, 43.67474], [141.98444, 43.68111], [141.9624, 43.66836], [141.94697, 43.67314], [141.92493, 43.66517], [141.91612, 43.65561], [141.91171, 43.63169], [141.88747, 43.6269], [141.88086, 43.62052], [141.88527, 43.60456], [141.88086, 43.5918], [141.88527, 43.58222], [141.87865, 43.56785], [141.89188, 43.55188], [141.88967, 43.5391], [141.89629, 43.52472], [141.89849, 43.50874], [141.89629, 43.49755], [141.86984, 43.48156], [141.87204, 43.44637], [141.86323, 43.43997], [141.8456, 43.43357], [141.83458, 43.41276], [141.82356, 43.40156], [141.81915, 43.38875], [141.79712, 43.37753], [141.77508, 43.37753], [141.76406, 43.36151], [141.75745, 43.35671], [141.70676, 43.34869], [141.68693, 43.32145], [141.66489, 43.30701], [141.65607, 43.29579], [141.65387, 43.28456], [141.66269, 43.23481], [141.66269, 43.22517], [141.65607, 43.21393], [141.61641, 43.17216], [141.61861, 43.14483], [141.6098, 43.13196], [141.56792, 43.11588], [141.47316, 43.14965], [141.44892, 43.15447], [141.42027, 43.17216], [141.38281, 43.21393], [141.3784, 43.22357], [141.35416, 43.22838], [141.34975, 43.23159], [141.34755, 43.23802], [141.36297, 43.25086], [141.37179, 43.26851]]}}, {"type": "Feature", "properties": {"kind": "river", "i": 1}, "geometry": {"type": "LineString", "coordinates": [[142.99596, 43.62052], [143.00698, 43.62371], [143.00478, 43.6269], [143.01139, 43.63169], [143.00698, 43.63488], [143.01359, 43.64126], [143.02461, 43.64285], [143.02902, 43.64604], [143.03563, 43.64764], [143.04665, 43.65561], [143.04445, 43.66677], [143.04886, 43.66996], [143.04224, 43.67155], [143.03784, 43.67793], [143.02902, 43.67952], [143.02682, 43.6843], [143.018, 43.68589], [143.0158, 43.70024], [143.00258, 43.7082], [143.00037, 43.71617], [142.97833, 43.71776], [142.96511, 43.72572], [142.94307, 43.72891], [142.94307, 43.73369], [142.93426, 43.74642], [142.91002, 43.76552], [142.9012, 43.77507], [142.899, 43.78621], [142.87696, 43.80371], [142.87255, 43.81166], [142.80864, 43.82597], [142.78, 43.84028], [142.75355, 43.84346], [142.74253, 43.84664], [142.72931, 43.84664], [142.7227, 43.84982], [142.70286, 43.84664], [142.69625, 43.8514], [142.70066, 43.85617], [142.69846, 43.86412], [142.67862, 43.87365], [142.67642, 43.88], [142.63455, 43.89906], [142.62573, 43.89747], [142.59047, 43.907], [142.58166, 43.90541], [142.57284, 43.89906], [142.56182, 43.90065], [142.5508, 43.89589], [142.53538, 43.89906], [142.52215, 43.89271], [142.51554, 43.88], [142.49351, 43.85776], [142.46486, 43.84028], [142.44502, 43.83392], [142.4318, 43.82597], [142.42739, 43.81961]]}}, {"type": "Feature", "properties": {"kind": "river", "i": 2}, "geometry": {"type": "LineString", "coordinates": [[142.79983, 43.97999], [142.76898, 43.97682], [142.73812, 43.98951], [142.73151, 43.99902], [142.72049, 44.01646], [142.70727, 44.03389], [142.7249, 44.0624], [142.74474, 44.07665], [142.72711, 44.0909], [142.68744, 44.1178], [142.66981, 44.12729], [142.64116, 44.11938], [142.60369, 44.11305], [142.58827, 44.10989], [142.5464, 44.11463], [142.4913, 44.12413], [142.43841, 44.15576], [142.41417, 44.17631], [142.40095, 44.19053], [142.37891, 44.20317], [142.35908, 44.21739], [142.35908, 44.25055], [142.35467, 44.2758], [142.36569, 44.29473], [142.38993, 44.31996], [142.42739, 44.33415], [142.44062, 44.34518], [142.44723, 44.36882], [142.47147, 44.40032], [142.46045, 44.41764], [142.44502, 44.42078], [142.4318, 44.43652], [142.38993, 44.45226], [142.33263, 44.46012], [142.33043, 44.47428], [142.33043, 44.48843], [142.32382, 44.50729], [142.33483, 44.53086], [142.33263, 44.55128], [142.3172, 44.57797], [142.29076, 44.59837], [142.30619, 44.60308], [142.27974, 44.62191], [142.2577, 44.64073], [142.2555, 44.66268], [142.26211, 44.68305], [142.26211, 44.70028], [142.26872, 44.71594], [142.24668, 44.72847], [142.23346, 44.72691], [142.22465, 44.72534], [142.19379, 44.73473], [142.17176, 44.72377], [142.1365, 44.7363], [142.12548, 44.75195], [142.11446, 44.73317], [142.08361, 44.73317], [142.04614, 44.73786], [142.05055, 44.75665], [142.05936, 44.78012], [142.06818, 44.81452], [142.06598, 44.84578], [142.05055, 44.86609], [142.02631, 44.88483], [141.99986, 44.89888], [141.97782, 44.91293], [141.95358, 44.89732], [141.91171, 44.90512], [141.91832, 44.91605], [141.87645, 44.93009], [141.87645, 44.95505], [141.86543, 44.97688], [141.85882, 44.99247], [141.83238, 44.98935], [141.79932, 44.99247], [141.76626, 44.98467], [141.731, 44.96441], [141.71558, 44.94881], [141.73761, 44.88951], [141.73761, 44.87858]]}}, {"type": "Feature", "properties": {"kind": "river", "i": 3}, "geometry": {"type": "LineString", "coordinates": [[142.42739, 43.81961], [142.40976, 43.81325], [142.39654, 43.79735], [142.38111, 43.79257], [142.36789, 43.77985], [142.35467, 43.77825], [142.33704, 43.77825]]}}, {"type": "Feature", "properties": {"kind": "river", "i": 4}, "geometry": {"type": "LineString", "coordinates": [[138.47163, 35.54848], [138.4518, 35.53414], [138.454, 35.51799], [138.46061, 35.50902], [138.44739, 35.50364], [138.44739, 35.49826], [138.45621, 35.48749], [138.44739, 35.48032], [138.44078, 35.46237], [138.44739, 35.45339], [138.43857, 35.43903], [138.44078, 35.43544], [138.44959, 35.43364], [138.454, 35.41928], [138.44519, 35.39593], [138.44739, 35.38874], [138.4518, 35.38155], [138.44959, 35.37616], [138.4518, 35.36718]]}}, {"type": "Feature", "properties": {"kind": "river", "i": 5}, "geometry": {"type": "LineString", "coordinates": [[138.4518, 35.36718], [138.44959, 35.3564], [138.43857, 35.3546], [138.43857, 35.351], [138.44078, 35.34561], [138.44739, 35.34022], [138.44519, 35.32044], [138.454, 35.30605], [138.454, 35.29346], [138.45841, 35.28807], [138.46061, 35.27547], [138.46943, 35.26828], [138.47384, 35.25928], [138.49147, 35.24668], [138.49587, 35.23948], [138.50469, 35.24128], [138.5135, 35.22868], [138.52893, 35.22688], [138.52452, 35.21608], [138.53554, 35.22508], [138.53995, 35.22508], [138.54215, 35.21248], [138.55537, 35.20168]]}}, {"type": "Feature", "properties": {"kind": "river", "i": 6}, "geometry": {"type": "LineString", "coordinates": [[138.55758, 35.19808], [138.56639, 35.19087], [138.57741, 35.19627], [138.58843, 35.19447], [138.59504, 35.18907], [138.60606, 35.19267], [138.60606, 35.18367], [138.61708, 35.18006], [138.61928, 35.17646], [138.61928, 35.16385], [138.6281, 35.14403]]}}, {"type": "Feature", "properties": {"kind": "river", "i": 7}, "geometry": {"type": "LineString", "coordinates": [[141.40485, 38.5036], [141.40925, 38.5174], [141.40925, 38.52257], [141.41146, 38.52947], [141.44231, 38.56566]]}}, {"type": "Feature", "properties": {"kind": "river", "i": 8}, "geometry": {"type": "LineString", "coordinates": [[141.11615, 38.99858], [141.12497, 38.99173], [141.13158, 38.97802], [141.15362, 38.97631], [141.15802, 38.97288], [141.15802, 38.95746], [141.16463, 38.9506], [141.20871, 38.94889], [141.21091, 38.93861], [141.23075, 38.92489], [141.23736, 38.91289], [141.26601, 38.89746], [141.2594, 38.87687], [141.2638, 38.86486], [141.25499, 38.85113], [141.2616, 38.8477], [141.2616, 38.84083], [141.2594, 38.83053], [141.25058, 38.82538], [141.25279, 38.81851], [141.24617, 38.80306], [141.24838, 38.79275], [141.2638, 38.7876], [141.26821, 38.7687], [141.28364, 38.7498], [141.26821, 38.73089], [141.26821, 38.71026], [141.27703, 38.7051], [141.28584, 38.71886], [141.29466, 38.71886], [141.28584, 38.70854], [141.29025, 38.69306], [141.28584, 38.68446], [141.28805, 38.65865], [141.28364, 38.6466], [141.29686, 38.61734], [141.29686, 38.60356], [141.30347, 38.59323], [141.29466, 38.56049], [141.30568, 38.5536], [141.30127, 38.54153], [141.30568, 38.53464], [141.30788, 38.51395], [141.31669, 38.5105], [141.34755, 38.52602], [141.36297, 38.52774], [141.38501, 38.53809], [141.42027, 38.54326], [141.43349, 38.56394], [141.44231, 38.56911], [141.46214, 38.576]]}}, {"type": "Feature", "properties": {"kind": "river", "i": 9}, "geometry": {"type": "LineString", "coordinates": [[141.17345, 39.86834], [141.17565, 39.86327], [141.16684, 39.85988], [141.16904, 39.85312], [141.16684, 39.84973], [141.16243, 39.84804], [141.16023, 39.83281], [141.14921, 39.82943], [141.15141, 39.82266], [141.15582, 39.82096], [141.15141, 39.81758], [141.15582, 39.8125], [141.147, 39.80911], [141.16243, 39.80742], [141.16023, 39.80404], [141.16684, 39.80065], [141.16243, 39.79726], [141.16904, 39.78033], [141.16463, 39.77525], [141.16684, 39.77017], [141.16243, 39.76678], [141.15141, 39.76678], [141.15362, 39.76], [141.147, 39.76339], [141.1426, 39.7617], [141.147, 39.75492], [141.14921, 39.74645], [141.14039, 39.74645], [141.13819, 39.73798], [141.12717, 39.73798], [141.12717, 39.7312], [141.13158, 39.7295], [141.12937, 39.72442]]}}, {"type": "Feature", "properties": {"kind": "river", "i": 10}, "geometry": {"type": "LineString", "coordinates": [[141.16023, 39.68373], [141.16243, 39.67355], [141.16904, 39.66676], [141.17125, 39.66337], [141.17125, 39.65998], [141.18226, 39.65489], [141.17786, 39.64471], [141.18226, 39.63622], [141.18226, 39.61585], [141.19769, 39.59548], [141.19549, 39.59038], [141.17786, 39.58019], [141.18006, 39.5717], [141.17565, 39.55301], [141.17565, 39.54281]]}}, {"type": "Feature", "properties": {"kind": "river", "i": 11}, "geometry": {"type": "LineString", "coordinates": [[141.17125, 39.43056], [141.17565, 39.42545], [141.17345, 39.42205], [141.16463, 39.41694], [141.14921, 39.40162], [141.13599, 39.39991], [141.12937, 39.39651], [141.13158, 39.36585], [141.1426, 39.35392], [141.13819, 39.33688], [141.15362, 39.33176], [141.15582, 39.31642], [141.14921, 39.30448], [141.147, 39.29596], [141.12717, 39.28061], [141.12497, 39.26525], [141.11174, 39.24648], [141.10513, 39.23112], [141.12937, 39.22088], [141.12937, 39.21063], [141.12717, 39.19868], [141.14039, 39.19355], [141.147, 39.17306], [141.16463, 39.1628], [141.18226, 39.12178], [141.18447, 39.09613]]}}, {"type": "Feature", "properties": {"kind": "river", "i": 12}, "geometry": {"type": "LineString", "coordinates": [[141.21312, 40.04909], [141.23075, 40.04909], [141.23736, 40.04403], [141.23736, 40.02209], [141.23515, 40.01365], [141.23956, 40.00521], [141.22414, 39.99002], [141.22854, 39.9782], [141.22193, 39.97313], [141.21532, 39.96469], [141.21312, 39.95793], [141.21532, 39.95455], [141.21312, 39.95286], [141.21752, 39.94779], [141.21312, 39.93765], [141.19769, 39.94103], [141.19108, 39.93765], [141.19549, 39.92921], [141.19989, 39.92752], [141.19328, 39.91399], [141.19549, 39.9123], [141.19549, 39.90892], [141.19769, 39.90047], [141.19108, 39.89202], [141.19328, 39.88863], [141.18226, 39.87341]]}}, {"type": "Feature", "properties": {"kind": "river", "i": 13}, "geometry": {"type": "LineString", "coordinates": [[141.16023, 39.06021], [141.147, 39.03967], [141.12937, 39.03282], [141.12937, 39.02769], [141.13819, 39.02769], [141.14039, 39.02426], [141.12056, 39.01228], [141.11615, 38.99858]]}}, {"type": "Feature", "properties": {"kind": "river", "i": 14}, "geometry": {"type": "LineString", "coordinates": [[141.15802, 39.49691], [141.15362, 39.49181], [141.15141, 39.48331], [141.16243, 39.4748], [141.16243, 39.468], [141.15362, 39.46119], [141.15362, 39.44928], [141.1448, 39.43737], [141.15362, 39.43226], [141.17125, 39.43056]]}}, {"type": "Feature", "properties": {"kind": "river", "i": 15}, "geometry": {"type": "LineString", "coordinates": [[134.18971, 35.16745], [134.19412, 35.15304], [134.19192, 35.14403], [134.20073, 35.13142], [134.20073, 35.10798], [134.20294, 35.09716], [134.20294, 35.08815]]}}, {"type": "Feature", "properties": {"kind": "river", "i": 16}, "geometry": {"type": "LineString", "coordinates": [[140.3228, 39.59548], [140.32059, 39.59208], [140.31398, 39.59378], [140.30737, 39.59038], [140.30737, 39.59718], [140.29855, 39.59208], [140.28754, 39.59718], [140.28754, 39.58868], [140.27431, 39.58868], [140.2655, 39.58019], [140.2677, 39.5751], [140.2677, 39.5717], [140.25227, 39.5649], [140.25889, 39.55811], [140.25889, 39.55471], [140.25007, 39.54961], [140.23685, 39.54791], [140.24346, 39.54281]]}}, {"type": "Feature", "properties": {"kind": "river", "i": 17}, "geometry": {"type": "LineString", "coordinates": [[140.4396, 39.6922], [140.40874, 39.69051], [140.38009, 39.68033], [140.37789, 39.67185], [140.36687, 39.67185], [140.36907, 39.66846], [140.35144, 39.67016], [140.35585, 39.66337], [140.34924, 39.66167], [140.35144, 39.65658], [140.34924, 39.65658], [140.35144, 39.65319], [140.34263, 39.6481], [140.34043, 39.64301], [140.33822, 39.6464], [140.33161, 39.64301], [140.32941, 39.64471], [140.3272, 39.64131], [140.3228, 39.64301], [140.31178, 39.62773], [140.30737, 39.62773], [140.31398, 39.62434], [140.31398, 39.61925], [140.31839, 39.61925], [140.32059, 39.61246], [140.31839, 39.60906], [140.325, 39.60736], [140.32059, 39.60567], [140.3228, 39.59718]]}}, {"type": "Feature", "properties": {"kind": "river", "i": 18}, "geometry": {"type": "LineString", "coordinates": [[140.12886, 37.83831], [140.12005, 37.86093], [140.12666, 37.88355], [140.12225, 37.90442], [140.12005, 37.9218], [140.13327, 37.9583], [140.14649, 37.96873], [140.1487, 37.97915], [140.13988, 37.99999], [140.13327, 38.01041], [140.10022, 38.03125], [140.10462, 38.03992], [140.08038, 38.0434], [140.07157, 38.06422], [140.04512, 38.10412], [140.04512, 38.12146], [140.04953, 38.13359], [140.05173, 38.15092], [140.07157, 38.16305], [140.07818, 38.18038], [140.0936, 38.19424], [140.09581, 38.21502], [140.09581, 38.24618], [140.10683, 38.26348], [140.13548, 38.28943], [140.12446, 38.29462], [140.13988, 38.31019], [140.15751, 38.33093], [140.16412, 38.33266], [140.17955, 38.32748], [140.18837, 38.33785], [140.2104, 38.36377], [140.2104, 38.37587], [140.22803, 38.37068], [140.26329, 38.36377], [140.26991, 38.34476], [140.30517, 38.34995], [140.31618, 38.36896], [140.325, 38.39487], [140.3272, 38.42077], [140.33161, 38.45012], [140.34043, 38.46565], [140.34483, 38.48635], [140.34704, 38.5105], [140.33161, 38.52085], [140.33161, 38.52774], [140.34263, 38.52602], [140.36467, 38.52429], [140.38891, 38.57083], [140.34704, 38.60184], [140.35365, 38.61217], [140.33381, 38.62595], [140.33822, 38.63972], [140.35365, 38.65005], [140.34263, 38.65865], [140.3272, 38.64832], [140.33161, 38.66725], [140.31618, 38.67586], [140.31398, 38.65693], [140.2655, 38.67242], [140.23905, 38.70166], [140.22583, 38.70166], [140.2104, 38.71886], [140.22142, 38.72573], [140.2082, 38.72917], [140.18616, 38.72917], [140.16633, 38.73777], [140.13327, 38.74121], [140.10903, 38.74808], [140.0892, 38.75667], [140.07818, 38.7498], [140.03631, 38.77214], [140.01868, 38.79447], [139.99443, 38.79962], [139.96358, 38.82367], [139.93934, 38.87172], [139.89967, 38.87859], [139.87102, 38.87515], [139.83576, 38.89402], [139.80932, 38.92318]]}}, {"type": "Feature", "properties": {"kind": "river", "i": 19}, "geometry": {"type": "LineString", "coordinates": [[137.94713, 35.8009], [137.95815, 35.75621], [137.96697, 35.72759], [137.96256, 35.70254], [137.95595, 35.69359], [137.95154, 35.67211], [137.94934, 35.66136], [137.94493, 35.6542], [137.93391, 35.63629], [137.9251, 35.62734], [137.92289, 35.60942], [137.92289, 35.5915], [137.90306, 35.57179], [137.89424, 35.55386], [137.86119, 35.51261], [137.85678, 35.48749], [137.83695, 35.46596], [137.81711, 35.44262], [137.81491, 35.43005], [137.8105, 35.41569], [137.81711, 35.41389], [137.80609, 35.39952], [137.8083, 35.39233], [137.8105, 35.37616], [137.83254, 35.351], [137.83254, 35.32583], [137.83695, 35.31505], [137.84576, 35.30605], [137.84576, 35.30066], [137.85017, 35.29167], [137.84135, 35.28447], [137.85017, 35.27547], [137.82813, 35.26468], [137.83034, 35.26288], [137.83474, 35.25208], [137.83474, 35.23768], [137.83915, 35.21248], [137.83034, 35.20528], [137.81711, 35.18727], [137.80389, 35.18367], [137.81711, 35.17466], [137.82152, 35.15845], [137.82152, 35.14764], [137.81491, 35.14043], [137.80169, 35.13142], [137.79287, 35.13502], [137.79948, 35.12601], [137.80169, 35.10798], [137.79287, 35.09536], [137.79067, 35.08454], [137.80169, 35.07733], [137.80389, 35.08995], [137.81932, 35.08094], [137.84135, 35.07733], [137.85017, 35.05749], [137.84576, 35.02681], [137.83474, 35.00154], [137.83034, 34.96543], [137.84135, 34.96724], [137.84356, 34.96001], [137.83474, 34.95821], [137.83474, 34.94195], [137.83695, 34.93111], [137.81271, 34.92388], [137.81711, 34.90943], [137.8105, 34.9022], [137.80169, 34.88232], [137.8105, 34.86785], [137.80169, 34.85881], [137.81932, 34.85519], [137.82813, 34.83168], [137.83034, 34.81902], [137.82372, 34.78825], [137.81711, 34.77196], [137.81932, 34.75386], [137.80609, 34.73394], [137.79948, 34.70677], [137.79728, 34.68865], [137.79287, 34.66328], [137.79508, 34.64877]]}}, {"type": "Feature", "properties": {"kind": "river", "i": 20}, "geometry": {"type": "LineString", "coordinates": [[138.05292, 36.05252], [138.03749, 36.05431], [138.02867, 36.04718], [138.02647, 36.03827], [138.01545, 36.02758], [138.01545, 36.02401], [138.00443, 36.00262], [138.00664, 35.99905], [138.00223, 35.99549], [138.00223, 35.98657], [137.99562, 35.97944], [137.99562, 35.97231], [137.9824, 35.96517], [137.9846, 35.95804], [137.99341, 35.95447], [137.99121, 35.94733], [137.99341, 35.94377], [137.98901, 35.9402], [137.99121, 35.93484], [137.9846, 35.92771], [137.99121, 35.92414], [137.99782, 35.90807], [137.99121, 35.88487], [137.9846, 35.87237], [137.9846, 35.86344], [137.97358, 35.85629], [137.97138, 35.84736], [137.95375, 35.83307], [137.94493, 35.81699], [137.94713, 35.8009]]}}, {"type": "Feature", "properties": {"kind": "river", "i": 21}, "geometry": {"type": "LineString", "coordinates": [[139.11513, 36.53566], [139.07326, 36.52326], [139.06004, 36.51086], [139.04681, 36.50378], [139.03139, 36.50378], [139.02918, 36.50023], [139.02478, 36.49846], [139.02037, 36.502]]}}, {"type": "Feature", "properties": {"kind": "river", "i": 22}, "geometry": {"type": "LineString", "coordinates": [[139.57792, 37.685], [139.58233, 37.69546], [139.57572, 37.6972], [139.5669, 37.69371], [139.56911, 37.70418], [139.5669, 37.70766], [139.56029, 37.70941], [139.53164, 37.70243], [139.51842, 37.71289], [139.51622, 37.71812], [139.49859, 37.71812], [139.49638, 37.72161], [139.49198, 37.72335], [139.48096, 37.71987], [139.46994, 37.70418], [139.48536, 37.70766], [139.48977, 37.70418], [139.48977, 37.6972], [139.47655, 37.69371], [139.46773, 37.685], [139.42586, 37.69023], [139.39942, 37.70243], [139.3906, 37.69895], [139.38619, 37.69023], [139.37958, 37.68674], [139.37738, 37.69023], [139.37958, 37.70069], [139.37738, 37.70941], [139.38179, 37.71464], [139.37958, 37.72161], [139.36856, 37.72161], [139.36636, 37.71289], [139.34873, 37.71987], [139.34432, 37.72858], [139.3289, 37.73207], [139.32008, 37.74427], [139.30466, 37.73555], [139.28041, 37.7373], [139.25838, 37.74427], [139.23193, 37.74601], [139.22532, 37.7495], [139.22091, 37.75298], [139.22091, 37.75995], [139.2165, 37.76169], [139.2143, 37.7704], [139.19887, 37.77563], [139.17904, 37.78608], [139.17463, 37.79305], [139.17684, 37.80349], [139.15921, 37.80698], [139.1526, 37.8122], [139.1526, 37.81568], [139.16141, 37.82961], [139.1526, 37.84701], [139.17243, 37.86267], [139.17463, 37.86789], [139.157, 37.88877], [139.15039, 37.90442], [139.14598, 37.93223], [139.12835, 37.96178]]}}, {"type": "Feature", "properties": {"kind": "river", "i": 23}, "geometry": {"type": "LineString", "coordinates": [[139.11954, 37.00875], [139.12174, 36.99643], [139.11293, 36.98235], [139.10632, 36.96298], [139.0997, 36.94713], [139.06665, 36.9348], [139.05563, 36.90837], [139.05343, 36.89075], [139.06004, 36.86078], [139.05783, 36.84667], [139.04902, 36.83256], [139.04461, 36.82198], [139.04902, 36.81139], [139.03139, 36.8061], [139.01155, 36.80786], [138.99172, 36.79904], [138.9807, 36.79022], [138.96748, 36.77963], [138.96968, 36.76197], [138.97629, 36.74961], [138.9785, 36.72666], [138.9785, 36.71606], [138.98731, 36.69132], [139.00274, 36.66834], [139.02257, 36.64359], [139.0358, 36.62591], [139.04241, 36.60822], [139.05122, 36.5923], [139.05122, 36.58522], [139.05122, 36.5746], [139.0402, 36.56752], [139.038, 36.56221], [139.03359, 36.55336], [139.03139, 36.54805], [139.03139, 36.53034], [139.02698, 36.51972], [139.01817, 36.51086], [139.01596, 36.49669], [139.0358, 36.46302], [139.03359, 36.42579], [139.05783, 36.39209], [139.07106, 36.36371], [139.06885, 36.34951], [139.07767, 36.33176], [139.09309, 36.3211], [139.12835, 36.314], [139.17023, 36.28025], [139.2143, 36.25538], [139.24295, 36.25182], [139.31567, 36.23583], [139.36856, 36.24471], [139.44349, 36.19671], [139.48316, 36.1896], [139.52944, 36.19138], [139.57131, 36.20382], [139.59555, 36.20916], [139.71235, 36.13444], [139.76524, 36.12198], [139.78287, 36.10774], [139.81373, 36.06143], [139.8578, 36.02936], [139.88645, 35.98657], [139.92391, 35.96517], [139.95256, 35.93663], [140.01647, 35.90986], [140.07597, 35.88308], [140.12225, 35.87237], [140.16192, 35.84379], [140.24126, 35.85451], [140.28092, 35.87415], [140.32059, 35.86522], [140.35585, 35.89558], [140.42197, 35.90629], [140.51232, 35.90093], [140.56741, 35.90093], [140.6754, 35.85093], [140.71727, 35.82592], [140.7327, 35.79197], [140.83848, 35.73832], [140.8517, 35.74547]]}}, {"type": "Feature", "properties": {"kind": "river", "i": 24}, "geometry": {"type": "LineString", "coordinates": [[136.68878, 35.25208], [136.68217, 35.24668], [136.67997, 35.24128], [136.68217, 35.21428], [136.68217, 35.20348], [136.67777, 35.18367], [136.67777, 35.17646], [136.67777, 35.17286], [136.68217, 35.16025], [136.68217, 35.15664], [136.68217, 35.14583], [136.68217, 35.13863], [136.69099, 35.12781]]}}, {"type": "Feature", "properties": {"kind": "river", "i": 25}, "geometry": {"type": "LineString", "coordinates": [[136.68878, 35.25208], [136.67997, 35.24128], [136.68217, 35.20348], [136.67777, 35.17646], [136.68217, 35.16025], [136.68217, 35.14583], [136.68217, 35.14223], [136.68438, 35.13322], [136.69099, 35.12781]]}}, {"type": "Feature", "properties": {"kind": "river", "i": 26}, "geometry": {"type": "LineString", "coordinates": [[136.71523, 35.10077], [136.71743, 35.09356], [136.72184, 35.07733], [136.72404, 35.07011], [136.75269, 35.02501], [136.73727, 35.04486], [136.72404, 35.07011], [136.72184, 35.07733], [136.71523, 35.10077]]}}, {"type": "Feature", "properties": {"kind": "river", "i": 27}, "geometry": {"type": "LineString", "coordinates": [[136.86949, 35.37257], [136.83203, 35.3564], [136.80118, 35.35999], [136.78575, 35.36898]]}}, {"type": "Feature", "properties": {"kind": "river", "i": 28}, "geometry": {"type": "LineString", "coordinates": [[136.86949, 35.37257], [136.84966, 35.37437], [136.8144, 35.36718], [136.78795, 35.36898]]}}, {"type": "Feature", "properties": {"kind": "river", "i": 29}, "geometry": {"type": "LineString", "coordinates": [[136.99511, 35.42467], [136.96425, 35.42107], [136.96205, 35.41569], [136.96205, 35.39952], [136.94001, 35.39054]]}}, {"type": "Feature", "properties": {"kind": "river", "i": 30}, "geometry": {"type": "LineString", "coordinates": [[137.10089, 35.46416], [137.08546, 35.45339], [137.08326, 35.44442], [137.07665, 35.44083], [137.05461, 35.44442], [137.03257, 35.43724], [137.01494, 35.43544], [137.00613, 35.43185]]}}, {"type": "Feature", "properties": {"kind": "river", "i": 31}, "geometry": {"type": "LineString", "coordinates": [[137.29262, 35.45878], [137.28821, 35.45519], [137.2838, 35.44801], [137.27278, 35.4516], [137.26176, 35.46416], [137.24634, 35.46416], [137.23532, 35.45698], [137.23091, 35.46416], [137.23311, 35.47134], [137.22871, 35.47314], [137.2221, 35.46955], [137.21548, 35.47493], [137.20447, 35.46955], [137.19565, 35.47314], [137.18243, 35.47314], [137.16259, 35.46416], [137.15598, 35.47673], [137.14056, 35.47134], [137.13615, 35.47673], [137.12733, 35.47673], [137.12293, 35.47134], [137.11191, 35.47134], [137.1053, 35.46596]]}}, {"type": "Feature", "properties": {"kind": "river", "i": 32}, "geometry": {"type": "LineString", "coordinates": [[137.48655, 35.51082], [137.45569, 35.50544], [137.43586, 35.50544], [137.42705, 35.49826], [137.42484, 35.49108], [137.41823, 35.48929], [137.4028, 35.48211], [137.36534, 35.47673], [137.35212, 35.47314], [137.33449, 35.47852], [137.31906, 35.47673], [137.31025, 35.46596], [137.29482, 35.46057]]}}, {"type": "Feature", "properties": {"kind": "river", "i": 33}, "geometry": {"type": "LineString", "coordinates": [[137.77083, 35.92235], [137.76863, 35.90986], [137.77083, 35.9045], [137.77524, 35.90272], [137.77304, 35.89915], [137.76863, 35.89915], [137.76202, 35.88844], [137.74439, 35.87594], [137.72896, 35.86879], [137.71794, 35.85986], [137.70913, 35.85629], [137.70692, 35.85272], [137.69591, 35.85093], [137.67828, 35.8295], [137.68268, 35.82771], [137.67828, 35.82235], [137.68048, 35.8152], [137.68929, 35.8009], [137.68709, 35.79375], [137.6915, 35.79018], [137.6915, 35.77766], [137.70031, 35.7723], [137.69811, 35.76515], [137.70913, 35.75978], [137.70692, 35.75442], [137.71574, 35.73832], [137.71133, 35.72937], [137.71354, 35.72401], [137.6915, 35.69717], [137.67387, 35.69538], [137.66726, 35.68822], [137.65844, 35.68464], [137.63861, 35.68106], [137.62538, 35.67032], [137.61657, 35.64525], [137.61216, 35.64167], [137.61657, 35.62375], [137.61437, 35.62196], [137.61437, 35.61659], [137.60996, 35.60942], [137.60555, 35.59688], [137.59894, 35.59509], [137.59233, 35.58613], [137.59012, 35.58792], [137.5769, 35.58792]]}}, {"type": "Feature", "properties": {"kind": "river", "i": 34}, "geometry": {"type": "LineString", "coordinates": [[136.78795, 35.36898], [136.77253, 35.37077], [136.76812, 35.36718], [136.7593, 35.35819], [136.72404, 35.29346], [136.70421, 35.27727]]}}, {"type": "Feature", "properties": {"kind": "river", "i": 35}, "geometry": {"type": "LineString", "coordinates": [[137.5769, 35.58792], [137.56368, 35.58433], [137.55046, 35.58792], [137.53283, 35.58254], [137.53944, 35.57537], [137.53283, 35.56282], [137.54164, 35.55386], [137.53944, 35.5449], [137.53283, 35.53952], [137.53723, 35.53772], [137.53283, 35.52876], [137.51079, 35.51261], [137.48655, 35.51082]]}}, {"type": "Feature", "properties": {"kind": "river", "i": 36}, "geometry": {"type": "LineString", "coordinates": [[138.58623, 36.98939], [138.58843, 36.99291], [138.59945, 36.99819], [138.61047, 36.99291], [138.61488, 36.99643], [138.61488, 37.00171], [138.63912, 37.00347], [138.63912, 37.01579], [138.64353, 37.02458], [138.66116, 37.02634], [138.66336, 37.03162], [138.66116, 37.03866], [138.67217, 37.04745], [138.68319, 37.05097], [138.68319, 37.05801], [138.69421, 37.0668], [138.70964, 37.0668], [138.71184, 37.07383], [138.70964, 37.08087], [138.71845, 37.09493], [138.71845, 37.10372], [138.73168, 37.11778], [138.73388, 37.13359], [138.7449, 37.14765], [138.76694, 37.16697], [138.77134, 37.18277], [138.77134, 37.20384], [138.78016, 37.2249], [138.77795, 37.23893], [138.79999, 37.24771], [138.80881, 37.24595], [138.81542, 37.25823], [138.82203, 37.26525], [138.83085, 37.26349], [138.83305, 37.25297], [138.83966, 37.25297], [138.84186, 37.26349], [138.84848, 37.26349], [138.85288, 37.26875], [138.84848, 37.27752], [138.83305, 37.27752], [138.83085, 37.28103], [138.83746, 37.28278], [138.83746, 37.28804], [138.81322, 37.2933], [138.8022, 37.30733], [138.8044, 37.31609], [138.82644, 37.33712], [138.82423, 37.35289], [138.81322, 37.3704], [138.81101, 37.40192], [138.81762, 37.40893], [138.82423, 37.43693], [138.83085, 37.44393], [138.83525, 37.45442], [138.84186, 37.45792], [138.84848, 37.46667], [138.84848, 37.48591], [138.85068, 37.4929], [138.84407, 37.50864], [138.84407, 37.53136], [138.82203, 37.54709], [138.81983, 37.55757]]}}, {"type": "Feature", "properties": {"kind": "river", "i": 37}, "geometry": {"type": "LineString", "coordinates": [[138.82864, 37.58203], [138.83525, 37.60123], [138.86831, 37.62218], [138.90357, 37.62393], [138.92561, 37.63091], [138.94324, 37.63091], [138.94765, 37.63615], [138.94544, 37.64313], [138.95646, 37.65011], [138.95866, 37.66057], [138.9785, 37.66755], [139.00715, 37.6693], [139.00935, 37.67627], [138.99833, 37.67802], [138.99833, 37.685], [139.00494, 37.68674], [139.02037, 37.685], [139.03139, 37.69023], [139.03359, 37.70418], [139.04241, 37.71115], [139.04681, 37.71987], [139.06224, 37.72858], [139.06224, 37.7373], [139.06665, 37.7495], [139.06444, 37.76169], [139.07106, 37.7704], [139.05783, 37.78608], [139.06224, 37.79479], [139.06444, 37.81046], [139.06224, 37.82091], [139.06224, 37.83483], [139.05343, 37.84005], [139.04241, 37.83831]]}}, {"type": "Feature", "properties": {"kind": "river", "i": 38}, "geometry": {"type": "LineString", "coordinates": [[139.02698, 37.84353], [139.02257, 37.85397], [139.02478, 37.87311], [139.01376, 37.88529], [139.01155, 37.89572], [139.02257, 37.90442], [139.05122, 37.91659], [139.05783, 37.92702], [139.06665, 37.94788]]}}, {"type": "Feature", "properties": {"kind": "river", "i": 39}, "geometry": {"type": "LineString", "coordinates": [[135.67726, 34.8787], [135.66624, 34.857], [135.65301, 34.84796], [135.63979, 34.81902], [135.61996, 34.80816], [135.60894, 34.78644], [135.58249, 34.76291], [135.55825, 34.75386], [135.55164, 34.73756], [135.5252, 34.73213], [135.50757, 34.71945], [135.48993, 34.71583], [135.45247, 34.69409], [135.41941, 34.68321]]}}, {"type": "Feature", "properties": {"kind": "river", "i": 40}, "geometry": {"type": "LineString", "coordinates": [[130.36177, 33.21532], [130.35075, 33.17475], [130.35516, 33.13969]]}}, {"type": "Feature", "properties": {"kind": "river", "i": 41}, "geometry": {"type": "LineString", "coordinates": [[130.91492, 33.31482], [130.90169, 33.32219], [130.89508, 33.31298], [130.87084, 33.31114], [130.85101, 33.33692], [130.84439, 33.33876], [130.84439, 33.33324], [130.82897, 33.35165], [130.81134, 33.36085], [130.78489, 33.34796], [130.77828, 33.35165], [130.77387, 33.36085], [130.76506, 33.36453], [130.75184, 33.36453], [130.732, 33.37005], [130.72319, 33.37005], [130.70556, 33.36085], [130.64826, 33.36269], [130.61961, 33.34428], [130.59978, 33.34244], [130.58215, 33.32771], [130.5535, 33.32955], [130.54027, 33.32403], [130.51603, 33.33139], [130.50501, 33.32955], [130.48738, 33.31482], [130.48298, 33.30561], [130.46094, 33.30377], [130.45653, 33.30193], [130.45653, 33.28904], [130.44551, 33.2743], [130.42788, 33.27061], [130.41246, 33.25218], [130.39483, 33.24665], [130.38381, 33.24113]]}}, {"type": "Feature", "properties": {"kind": "river", "i": 42}, "geometry": {"type": "LineString", "coordinates": [[131.04273, 33.16552], [131.03833, 33.16921], [131.03612, 33.18028], [131.02951, 33.18581], [131.01629, 33.17659], [131.00527, 33.17843], [130.99425, 33.18397], [130.99205, 33.1895], [130.99425, 33.19872], [130.98544, 33.20979], [130.98984, 33.21347], [130.99205, 33.22269], [130.98103, 33.23375], [130.98764, 33.23928], [130.97442, 33.24665], [130.97001, 33.25771], [130.9634, 33.2614], [130.95899, 33.27245], [130.95238, 33.27798], [130.95458, 33.28351], [130.94797, 33.29088], [130.95238, 33.29456], [130.95018, 33.30009], [130.94356, 33.30561], [130.92814, 33.31298]]}}, {"type": "Feature", "properties": {"kind": "river", "i": 43}, "geometry": {"type": "LineString", "coordinates": [[131.14851, 33.07693], [131.1375, 33.07693], [131.13529, 33.08062], [131.13309, 33.07878], [131.10885, 33.08616], [131.10444, 33.08985], [131.09562, 33.08985], [131.09783, 33.09355], [131.09342, 33.09355], [131.09122, 33.10093], [131.09562, 33.10647], [131.08681, 33.11755], [131.0802, 33.11755], [131.0802, 33.12124], [131.06918, 33.11939], [131.06036, 33.12677], [131.06257, 33.13046], [131.05375, 33.13416], [131.05375, 33.14523], [131.04934, 33.14707], [131.05155, 33.15261], [131.04273, 33.16368]]}}, {"type": "Feature", "properties": {"kind": "coast", "i": 11185}, "geometry": {"type": "LineString", "coordinates": [[141.5569, 40.53823], [141.5525, 40.52985], [141.5525, 40.53488], [141.54148, 40.5265], [141.53707, 40.5265], [141.53927, 40.53153], [141.53487, 40.5265], [141.52826, 40.52818], [141.53487, 40.53153], [141.51944, 40.5265], [141.4952, 40.53153], [141.52605, 40.5332], [141.50622, 40.54493], [141.51503, 40.55163], [141.51283, 40.5466], [141.50181, 40.5466], [141.50622, 40.55163], [141.49961, 40.55163], [141.49961, 40.55665], [141.48418, 40.56167], [141.52164, 40.55498], [141.52826, 40.55832], [141.52164, 40.55498], [141.50401, 40.56], [141.48859, 40.57172], [141.48198, 40.56837], [141.47537, 40.58678], [141.47977, 40.58678], [141.47096, 40.58678], [141.46214, 40.60352], [141.44011, 40.66874], [141.44451, 40.67709], [141.44011, 40.67709], [141.44451, 40.68211], [141.4357, 40.67877], [141.43349, 40.68545], [141.44231, 40.68044], [141.43129, 40.68545], [141.42468, 40.7055], [141.40044, 40.83735]]}}, {"type": "Feature", "properties": {"kind": "coast", "i": 10431}, "geometry": {"type": "LineString", "coordinates": [[139.41044, 38.14919], [139.36856, 38.10065], [139.31567, 38.05034], [139.24736, 38.0052], [139.24075, 38.00694], [139.22973, 38.00173], [139.23193, 37.99478], [139.22532, 37.99131], [139.23193, 37.98089], [139.24075, 37.98089], [139.23634, 37.97394], [139.24515, 37.97047], [139.23413, 37.9722], [139.23193, 37.96525], [139.22752, 37.97047], [139.22091, 37.96873], [139.22973, 37.97568], [139.2143, 37.99305], [139.22973, 38.01562], [139.2165, 37.99305], [139.20108, 37.98263], [139.13276, 37.96004], [139.07106, 37.95309], [139.07546, 37.94788], [139.06885, 37.94788]]}}, {"type": "Feature", "properties": {"kind": "coast", "i": 12233}, "geometry": {"type": "LineString", "coordinates": [[140.02529, 40.34367], [140.01647, 40.26468], [140.00766, 40.23104], [140.00325, 40.22262], [139.98342, 40.21084], [139.99884, 40.22094], [140.02529, 40.21758], [140.00325, 40.21758], [140.00105, 40.1957], [140.00325, 40.21253], [139.99443, 40.21253], [139.99884, 40.20916], [139.99443, 40.19906], [139.98782, 40.20075], [139.98342, 40.18054], [139.99223, 40.17718], [139.96579, 40.10979], [139.92832, 40.0474], [139.9151, 40.03053], [139.90849, 40.03053], [139.9151, 40.03053], [139.88865, 40.00183]]}}, {"type": "Feature", "properties": {"kind": "coast", "i": 11164}, "geometry": {"type": "LineString", "coordinates": [[140.83627, 40.87235], [140.82746, 40.86235], [140.82305, 40.86569], [140.82746, 40.86235], [140.80542, 40.84068], [140.77898, 40.83235], [140.76135, 40.83568], [140.75033, 40.82901], [140.74812, 40.83568], [140.74592, 40.83068], [140.7349, 40.83068], [140.73931, 40.83402], [140.7327, 40.83068], [140.71727, 40.84735], [140.70405, 40.85069], [140.69082, 40.86069], [140.68201, 40.87569], [140.65997, 40.95562], [140.65556, 40.98557], [140.65997, 40.98391], [140.64675, 41.04045], [140.64675, 41.04876], [140.64895, 41.0471], [140.63793, 41.06372], [140.63132, 41.09694], [140.63353, 41.12351]]}}, {"type": "Feature", "properties": {"kind": "coast", "i": 753}, "geometry": {"type": "LineString", "coordinates": [[140.68201, 35.89022], [140.6754, 35.89736], [140.67099, 35.91878], [140.65336, 35.92592], [140.66438, 35.92771], [140.6776, 35.91878], [140.69523, 35.92771], [140.69303, 35.93484], [140.70405, 35.93841], [140.68642, 35.96339], [140.70184, 35.9616], [140.68201, 35.97231], [140.67981, 35.96696], [140.6776, 35.97231], [140.68421, 35.97409], [140.6754, 35.97052], [140.66218, 35.98479], [140.60488, 36.09884], [140.57182, 36.18248]]}}, {"type": "Feature", "properties": {"kind": "coast", "i": 11099}, "geometry": {"type": "LineString", "coordinates": [[145.0036, 44.07823], [144.99478, 44.07507], [144.99698, 44.07348], [144.99037, 44.07665], [144.98597, 44.07032], [144.99258, 44.07032], [144.98817, 44.06715], [144.97715, 44.06715], [144.97715, 44.0624], [144.9463, 44.04022], [144.93528, 44.04339], [144.92426, 44.01963], [144.91104, 44.00378], [144.88019, 43.98475], [144.84933, 43.97365], [144.83391, 43.96096], [144.83611, 43.95144], [144.80746, 43.94351], [144.79644, 43.93081], [144.73033, 43.92129], [144.65981, 43.91653]]}}, {"type": "Feature", "properties": {"kind": "coast", "i": 11638}, "geometry": {"type": "LineString", "coordinates": [[143.32433, 42.15939], [143.33534, 42.17899], [143.33755, 42.20185], [143.31992, 42.21164], [143.32433, 42.22307], [143.31551, 42.22796], [143.3089, 42.24428], [143.3089, 42.25733], [143.31992, 42.28179], [143.32653, 42.28342], [143.32212, 42.28179], [143.32653, 42.28994], [143.34857, 42.30298], [143.31992, 42.28831], [143.32212, 42.29809], [143.32873, 42.29483], [143.32433, 42.29972], [143.33314, 42.30298], [143.32873, 42.30624], [143.34196, 42.30135], [143.32653, 42.30787], [143.32873, 42.31602], [143.39044, 42.41535]]}}, {"type": "Feature", "properties": {"kind": "coast", "i": 12021}, "geometry": {"type": "LineString", "coordinates": [[141.62302, 42.62974], [141.62081, 42.64109], [141.62522, 42.64433], [141.63404, 42.63623], [141.69574, 42.6573], [141.69795, 42.65244], [141.64065, 42.63461], [141.62081, 42.61515], [141.63624, 42.62812], [141.70015, 42.62812], [141.72659, 42.62488], [141.731, 42.62164], [141.73321, 42.62488], [141.731, 42.62001], [141.73982, 42.62488], [141.75965, 42.62164], [141.77728, 42.61353], [141.77508, 42.60866], [141.77949, 42.61677], [141.7861, 42.61515], [141.78169, 42.60704], [141.79932, 42.60217]]}}, {"type": "Feature", "properties": {"kind": "coast", "i": 11664}, "geometry": {"type": "LineString", "coordinates": [[144.23007, 42.99833], [144.3028, 43.00478], [144.31602, 43.00316], [144.31382, 42.99511], [144.32043, 43.00155], [144.33585, 42.99511], [144.34026, 42.99994], [144.34026, 42.99349], [144.35348, 42.99833], [144.34247, 42.99027], [144.35348, 42.99672], [144.3601, 42.98866], [144.3601, 42.99511], [144.3623, 42.98705], [144.36671, 42.99027], [144.36891, 42.98382], [144.37332, 42.98543], [144.37332, 42.97576], [144.36671, 42.97092], [144.35569, 42.97576], [144.3623, 42.97092], [144.39095, 42.96931], [144.39536, 42.96609], [144.38654, 42.96609], [144.40417, 42.95802], [144.43943, 42.95157], [144.44604, 42.9435], [144.44604, 42.94673], [144.48571, 42.93866]]}}, {"type": "Feature", "properties": {"kind": "coast", "i": 11291}, "geometry": {"type": "LineString", "coordinates": [[142.33483, 42.34535], [142.35908, 42.33557], [142.3723, 42.32417], [142.36789, 42.32417], [142.40756, 42.30787], [142.44723, 42.30298], [142.45384, 42.29483], [142.44943, 42.29646], [142.48469, 42.27038], [142.48249, 42.26875], [142.51334, 42.26548], [142.55301, 42.24917], [142.5508, 42.24591], [142.58386, 42.24428], [142.64997, 42.20838]]}}, {"type": "Feature", "properties": {"kind": "coast", "i": 11076}, "geometry": {"type": "LineString", "coordinates": [[142.34585, 45.17452], [142.26652, 45.24284], [142.17176, 45.34206], [142.05055, 45.40244]]}}, {"type": "Feature", "properties": {"kind": "coast", "i": 11157}, "geometry": {"type": "LineString", "coordinates": [[140.82305, 41.14011], [140.85611, 41.16168], [140.87814, 41.16666], [140.89357, 41.16334], [140.91561, 41.17661], [140.94646, 41.17329], [140.97952, 41.19817], [141.01037, 41.19817], [141.03241, 41.1849], [141.05665, 41.18324], [141.07648, 41.20149], [141.12937, 41.22138], [141.15582, 41.24624]]}}, {"type": "Feature", "properties": {"kind": "coast", "i": 11081}, "geometry": {"type": "LineString", "coordinates": [[143.56013, 44.25213], [143.39925, 44.31681], [143.37281, 44.33257], [143.38162, 44.3373], [143.37722, 44.33415], [143.37281, 44.33888], [143.36399, 44.33888], [143.35738, 44.35306], [143.37061, 44.35149], [143.34857, 44.37039], [143.27584, 44.40032]]}}, {"type": "Feature", "properties": {"kind": "coast", "i": 11132}, "geometry": {"type": "LineString", "coordinates": [[141.87865, 45.46275], [141.86323, 45.43956], [141.82576, 45.41636], [141.77728, 45.40398], [141.75965, 45.40553], [141.74643, 45.41327], [141.74202, 45.40244], [141.71558, 45.39625], [141.70676, 45.39625], [141.70676, 45.40708], [141.70676, 45.40244], [141.70235, 45.40553], [141.69133, 45.40244], [141.68913, 45.40863], [141.68693, 45.40398], [141.68252, 45.40553], [141.68693, 45.41172], [141.68032, 45.41017], [141.68252, 45.40398], [141.67811, 45.40553], [141.67811, 45.41481], [141.68693, 45.41481], [141.68032, 45.41791], [141.68472, 45.41945], [141.67591, 45.421], [141.66269, 45.43956], [141.66709, 45.43801], [141.64506, 45.45038]]}}, {"type": "Feature", "properties": {"kind": "coast", "i": 12230}, "geometry": {"type": "LineString", "coordinates": [[139.87323, 39.11152], [139.87984, 39.09613], [139.86882, 39.07389], [139.87323, 39.06876], [139.86882, 39.05507], [139.84458, 38.99001], [139.83356, 38.97288], [139.82695, 38.97459], [139.82034, 38.96089], [139.82915, 38.95746], [139.83356, 38.96431], [139.83576, 38.95575], [139.82254, 38.94889], [139.81373, 38.9506], [139.81593, 38.93861], [139.80491, 38.93004], [139.81373, 38.92661], [139.82034, 38.93004], [139.81593, 38.92489], [139.82254, 38.92318], [139.83356, 38.90946], [139.79389, 38.93689], [139.80932, 38.92489]]}}, {"type": "Feature", "properties": {"kind": "coast", "i": 12262}, "geometry": {"type": "LineString", "coordinates": [[141.42909, 43.41597], [141.43349, 43.39035], [141.42468, 43.37113], [141.42909, 43.35991], [141.42248, 43.34389], [141.42468, 43.32786], [141.37399, 43.27493], [141.37399, 43.27012], [141.33212, 43.23159], [141.31449, 43.22035], [141.30127, 43.22196], [141.31008, 43.21554], [141.30127, 43.22035], [141.30568, 43.21875], [141.29906, 43.21393], [141.30788, 43.21232], [141.29025, 43.20911], [141.29466, 43.18501]]}}, {"type": "Feature", "properties": {"kind": "coast", "i": 11075}, "geometry": {"type": "LineString", "coordinates": [[143.10175, 44.49786], [143.06428, 44.51986], [143.06428, 44.53243], [143.04665, 44.52929], [142.98935, 44.5607], [142.96511, 44.58425], [142.96511, 44.59053], [142.94528, 44.60151], [142.94528, 44.60936], [142.93206, 44.61406], [142.92765, 44.62975], [142.91883, 44.62975], [142.8417, 44.68775]]}}, {"type": "Feature", "properties": {"kind": "coast", "i": 6084}, "geometry": {"type": "LineString", "coordinates": [[134.59741, 34.77196], [134.60622, 34.7792], [134.61284, 34.77739], [134.60843, 34.77558], [134.61063, 34.76834], [134.62385, 34.76834], [134.62826, 34.77739], [134.62165, 34.78282], [134.64369, 34.78282], [134.64369, 34.7792], [134.63267, 34.77739], [134.63267, 34.76653], [134.62826, 34.76291], [134.64589, 34.76653], [134.64589, 34.7792], [134.65691, 34.78825], [134.6503, 34.77015], [134.66352, 34.78463], [134.67013, 34.7792], [134.65911, 34.77377], [134.66793, 34.77015], [134.67454, 34.77558], [134.68336, 34.77196], [134.68556, 34.77739], [134.68997, 34.77739], [134.68776, 34.77015], [134.69658, 34.77377], [134.69658, 34.77015], [134.70319, 34.77196], [134.70099, 34.77739], [134.7076, 34.77558], [134.70319, 34.77196], [134.71201, 34.77558], [134.74065, 34.76834]]}}, {"type": "Feature", "properties": {"kind": "coast", "i": 6014}, "geometry": {"type": "LineString", "coordinates": [[135.16818, 34.64696], [135.18802, 34.6524], [135.177, 34.66328], [135.18361, 34.66146], [135.18802, 34.6669], [135.177, 34.67053], [135.18802, 34.67053], [135.18141, 34.67778], [135.18582, 34.6814], [135.19022, 34.67959], [135.19022, 34.68503], [135.19463, 34.67959], [135.20124, 34.68321], [135.20345, 34.67778], [135.20345, 34.68684], [135.21887, 34.69046], [135.21446, 34.69409], [135.20565, 34.69046], [135.21226, 34.6959], [135.22548, 34.70133], [135.21667, 34.69409], [135.23871, 34.69227], [135.22769, 34.69952], [135.25413, 34.69952], [135.24972, 34.70858], [135.26956, 34.70677], [135.2916, 34.71402], [135.2916, 34.72126], [135.30482, 34.71764], [135.30702, 34.71402], [135.31584, 34.71583]]}}, {"type": "Feature", "properties": {"kind": "coast", "i": 11280}, "geometry": {"type": "LineString", "coordinates": [[140.45723, 42.17736], [140.4418, 42.18062], [140.43519, 42.19369], [140.43078, 42.19042], [140.41095, 42.20185], [140.38891, 42.22144], [140.33822, 42.22796], [140.29635, 42.24265], [140.28974, 42.25733], [140.28974, 42.25244], [140.27652, 42.29483], [140.27652, 42.31928], [140.28974, 42.36326], [140.29855, 42.37303], [140.29415, 42.3714], [140.29635, 42.37466]]}}, {"type": "Feature", "properties": {"kind": "coast", "i": 12598}, "geometry": {"type": "LineString", "coordinates": [[141.64506, 45.45038], [141.63624, 45.4241], [141.63404, 45.40553], [141.63624, 45.3916], [141.65828, 45.36993], [141.65828, 45.35755], [141.63404, 45.32347], [141.62081, 45.31262], [141.612, 45.31262], [141.61861, 45.30952], [141.6142, 45.30797], [141.61861, 45.29867], [141.6142, 45.28007], [141.57233, 45.23508], [141.57013, 45.19782], [141.57894, 45.17608]]}}, {"type": "Feature", "properties": {"kind": "coast", "i": 12663}, "geometry": {"type": "LineString", "coordinates": [[140.31178, 41.09694], [140.3228, 41.08698], [140.325, 41.04876], [140.30737, 40.93398], [140.27431, 40.83735], [140.23905, 40.78731]]}}, {"type": "Feature", "properties": {"kind": "coast", "i": 11264}, "geometry": {"type": "LineString", "coordinates": [[141.96681, 42.52913], [142.01308, 42.50152], [142.0197, 42.49339], [142.01529, 42.49339], [142.02851, 42.48527], [142.07038, 42.47714], [142.07699, 42.47227], [142.07038, 42.47227], [142.0792, 42.46902], [142.12988, 42.46739], [142.16735, 42.45926], [142.196, 42.44788], [142.20702, 42.43812], [142.20481, 42.43324], [142.20922, 42.43324], [142.20261, 42.43324], [142.22465, 42.42185]]}}, {"type": "Feature", "properties": {"kind": "coast", "i": 10408}, "geometry": {"type": "LineString", "coordinates": [[140.06055, 39.69051], [140.06055, 39.59887], [140.05173, 39.54621], [140.04512, 39.54281], [140.05173, 39.54111], [140.05173, 39.53092], [140.02529, 39.41524], [140.01647, 39.39651], [140.00986, 39.39481], [140.01647, 39.39481], [140.01427, 39.3914]]}}, {"type": "Feature", "properties": {"kind": "coast", "i": 12202}, "geometry": {"type": "LineString", "coordinates": [[141.40044, 40.83735], [141.38942, 40.91567], [141.39603, 40.92399], [141.38721, 40.92399], [141.38942, 40.93065], [141.3762, 40.93398], [141.39383, 40.93731], [141.38721, 40.94231], [141.38942, 40.96394], [141.38501, 40.96727], [141.38942, 40.96894], [141.39383, 40.96394], [141.38721, 40.9706], [141.38501, 41.01219], [141.39603, 41.0903]]}}, {"type": "Feature", "properties": {"kind": "coast", "i": 12554}, "geometry": {"type": "LineString", "coordinates": [[141.24397, 41.07036], [141.23956, 41.02549], [141.22634, 40.98391], [141.2043, 40.93898], [141.18006, 40.90567], [141.14921, 40.87902], [141.11395, 40.86902], [141.11395, 40.87735], [141.10954, 40.87235], [141.09852, 40.87569], [141.07869, 40.89735]]}}, {"type": "Feature", "properties": {"kind": "coast", "i": 12364}, "geometry": {"type": "LineString", "coordinates": [[131.74353, 34.05017], [131.74794, 34.0447], [131.75896, 34.04835], [131.76337, 34.0593], [131.76557, 34.05383], [131.77218, 34.05748], [131.77438, 34.05383], [131.7832, 34.06113], [131.7832, 34.05383], [131.78761, 34.05383], [131.79642, 34.0593], [131.79863, 34.05383], [131.79201, 34.05017], [131.80083, 34.04835], [131.78981, 34.04287], [131.781, 34.02643], [131.78981, 34.02461], [131.80303, 34.04287], [131.81846, 34.03557], [131.82066, 34.02643], [131.82727, 34.02826], [131.82507, 34.02095], [131.81405, 34.02278], [131.81185, 34.01547], [131.79863, 34.01182], [131.7832, 33.99538], [131.78761, 33.98807], [131.76998, 33.98076], [131.77879, 33.97345], [131.78761, 33.97345]]}}, {"type": "Feature", "properties": {"kind": "coast", "i": 11651}, "geometry": {"type": "LineString", "coordinates": [[144.48571, 42.93866], [144.52979, 42.95157], [144.55182, 42.94673], [144.63116, 42.95157], [144.67523, 42.93866], [144.71931, 42.93544], [144.71711, 42.93221], [144.78542, 42.93705]]}}, {"type": "Feature", "properties": {"kind": "coast", "i": 11233}, "geometry": {"type": "LineString", "coordinates": [[140.70625, 42.13815], [140.68862, 42.12671], [140.65997, 42.12834], [140.64234, 42.12344], [140.64455, 42.12671], [140.6159, 42.11527], [140.57843, 42.10873], [140.54978, 42.11363], [140.52113, 42.12507], [140.4991, 42.14795], [140.46384, 42.16592], [140.45723, 42.17736]]}}, {"type": "Feature", "properties": {"kind": "coast", "i": 11224}, "geometry": {"type": "LineString", "coordinates": [[141.18667, 42.45438], [141.19108, 42.45113], [141.18667, 42.44625], [141.20651, 42.45276], [141.30127, 42.51452], [141.31229, 42.51452], [141.31008, 42.51939], [141.3189, 42.51939], [141.33873, 42.53563], [141.41807, 42.57459]]}}, {"type": "Feature", "properties": {"kind": "coast", "i": 11588}, "geometry": {"type": "LineString", "coordinates": [[142.64997, 42.20838], [142.67201, 42.19205], [142.68964, 42.19205], [142.69846, 42.18552], [142.71829, 42.18552], [142.73812, 42.17736], [142.76016, 42.17572], [142.76457, 42.17082], [142.75796, 42.16756], [142.76457, 42.17082], [142.77338, 42.16102], [142.75575, 42.16429], [142.78881, 42.15612], [142.81526, 42.14142], [142.86374, 42.13651]]}}, {"type": "Feature", "properties": {"kind": "coast", "i": 11101}, "geometry": {"type": "LineString", "coordinates": [[144.04496, 44.12729], [143.93036, 44.14627], [143.7761, 44.18421]]}}, {"type": "Feature", "properties": {"kind": "coast", "i": 10434}, "geometry": {"type": "LineString", "coordinates": [[138.43637, 38.0833], [138.43417, 38.09198], [138.44078, 38.08851], [138.43417, 38.09371], [138.43637, 38.11799], [138.46061, 38.16305], [138.49367, 38.2029], [138.49367, 38.22194], [138.5113, 38.26521], [138.5091, 38.29462], [138.51571, 38.31537]]}}, {"type": "Feature", "properties": {"kind": "coast", "i": 11123}, "geometry": {"type": "LineString", "coordinates": [[142.8417, 44.68775], [142.81746, 44.70341], [142.81966, 44.70968], [142.80644, 44.70968], [142.73812, 44.76134], [142.72049, 44.78481], [142.70286, 44.79732], [142.70286, 44.80827], [142.68523, 44.82077], [142.68083, 44.83171], [142.66099, 44.84109], [142.65218, 44.85359]]}}, {"type": "Feature", "properties": {"kind": "coast", "i": 11273}, "geometry": {"type": "LineString", "coordinates": [[140.909, 42.37954], [140.91561, 42.36652], [140.91781, 42.3714], [140.95307, 42.36], [140.94867, 42.35349], [140.95307, 42.36], [140.97291, 42.35512], [140.98393, 42.36163], [140.97731, 42.3486], [141.00817, 42.34698], [140.98172, 42.34372], [140.98393, 42.33394], [140.98833, 42.33232], [140.97952, 42.32417], [140.97731, 42.32743], [140.9707, 42.32417], [140.9707, 42.33394], [140.96409, 42.33883], [140.96189, 42.33557], [140.95968, 42.34209], [140.95528, 42.33883], [140.95748, 42.34372], [140.95307, 42.34209], [140.95087, 42.34698]]}}, {"type": "Feature", "properties": {"kind": "coast", "i": 776}, "geometry": {"type": "LineString", "coordinates": [[140.76575, 35.83664], [140.70845, 35.92235], [140.71286, 35.9616], [140.71066, 35.92592], [140.6776, 35.91164], [140.69082, 35.88308], [140.68642, 35.88129], [140.68201, 35.89022]]}}, {"type": "Feature", "properties": {"kind": "coast", "i": 12308}, "geometry": {"type": "LineString", "coordinates": [[138.26007, 37.97568], [138.26668, 37.97568], [138.26007, 37.97568], [138.27329, 37.99305], [138.2755, 38.00347], [138.29753, 38.00694], [138.31957, 37.99826], [138.34161, 37.97741], [138.34161, 37.96004], [138.30635, 37.93919], [138.2799, 37.91137], [138.28211, 37.90094], [138.29092, 37.89225], [138.28431, 37.87485]]}}, {"type": "Feature", "properties": {"kind": "coast", "i": 12569}, "geometry": {"type": "LineString", "coordinates": [[140.34704, 42.46902], [140.39111, 42.52264], [140.40213, 42.52751], [140.39552, 42.52751], [140.40213, 42.53401], [140.46384, 42.5827], [140.47706, 42.58919], [140.47486, 42.58595], [140.47926, 42.58919], [140.49249, 42.58433], [140.51012, 42.58433], [140.51673, 42.58919], [140.53656, 42.58757]]}}, {"type": "Feature", "properties": {"kind": "coast", "i": 11653}, "geometry": {"type": "LineString", "coordinates": [[143.52487, 42.57297], [143.62845, 42.6654], [143.63726, 42.67189], [143.64608, 42.66865], [143.63726, 42.67351], [143.64387, 42.67513], [143.64828, 42.6654], [143.64387, 42.67675], [143.69235, 42.71238]]}}, {"type": "Feature", "properties": {"kind": "coast", "i": 11111}, "geometry": {"type": "LineString", "coordinates": [[140.35806, 42.87733], [140.34704, 42.85794], [140.30517, 42.82886], [140.30296, 42.81269], [140.30957, 42.79491], [140.30517, 42.77712], [140.27872, 42.76903], [140.24787, 42.76741], [140.23685, 42.78521], [140.23905, 42.79491], [140.23244, 42.79814], [140.23905, 42.79491], [140.21481, 42.80623]]}}, {"type": "Feature", "properties": {"kind": "coast", "i": 11637}, "geometry": {"type": "LineString", "coordinates": [[142.86374, 42.13651], [142.87696, 42.13161], [142.91002, 42.13161], [142.91222, 42.12344], [142.92104, 42.12507], [142.91002, 42.1218], [142.92324, 42.12017], [142.92985, 42.12671], [142.9607, 42.12017], [142.97833, 42.10219], [142.99817, 42.09401], [143.00919, 42.08093], [143.06869, 42.06129]]}}, {"type": "Feature", "properties": {"kind": "coast", "i": 12294}, "geometry": {"type": "LineString", "coordinates": [[137.6364, 36.97882], [137.58792, 36.9753], [137.5747, 36.96298], [137.49096, 36.95417], [137.42705, 36.92423], [137.40942, 36.8978]]}}, {"type": "Feature", "properties": {"kind": "coast", "i": 12278}, "geometry": {"type": "LineString", "coordinates": [[143.06869, 42.06129], [143.1348, 42.02693], [143.15904, 42.00073], [143.16345, 41.98271], [143.19651, 41.95813], [143.21634, 41.95158], [143.24279, 41.92371], [143.2494, 41.92371], [143.24499, 41.93683]]}}, {"type": "Feature", "properties": {"kind": "coast", "i": 10936}, "geometry": {"type": "LineString", "coordinates": [[133.70488, 34.49453], [133.70488, 34.48727], [133.73133, 34.48363], [133.73353, 34.47455], [133.74455, 34.47092], [133.73794, 34.4909], [133.72031, 34.49635], [133.72031, 34.50361], [133.73574, 34.49816], [133.74014, 34.5254], [133.74014, 34.51814], [133.74676, 34.51088], [133.74235, 34.49998], [133.74896, 34.48908], [133.75998, 34.48545], [133.75557, 34.47637], [133.76218, 34.47455], [133.75557, 34.47273], [133.75998, 34.46728], [133.76659, 34.47273], [133.76879, 34.46365]]}}, {"type": "Feature", "properties": {"kind": "coast", "i": 12303}, "geometry": {"type": "LineString", "coordinates": [[138.41433, 37.86615], [138.42094, 37.86789], [138.40993, 37.86789], [138.41874, 37.86963], [138.42756, 37.88007], [138.47163, 37.89572], [138.48926, 37.91833], [138.50028, 37.92007], [138.50248, 37.9444], [138.52232, 37.97915], [138.54656, 38.00694], [138.55097, 38.0243]]}}, {"type": "Feature", "properties": {"kind": "coast", "i": 11647}, "geometry": {"type": "LineString", "coordinates": [[143.69235, 42.71238], [143.81577, 42.80299], [143.82458, 42.79976], [143.82017, 42.80623], [143.82458, 42.79976], [143.82238, 42.80784], [143.87086, 42.84179]]}}, {"type": "Feature", "properties": {"kind": "coast", "i": 9789}, "geometry": {"type": "LineString", "coordinates": [[135.26515, 34.43639], [135.25193, 34.44366], [135.2343, 34.43094], [135.25634, 34.44911], [135.24091, 34.45456], [135.20124, 34.4273], [135.21006, 34.42003], [135.20565, 34.42366], [135.22108, 34.43275], [135.22989, 34.43094], [135.21887, 34.42185], [135.22769, 34.41276], [135.26515, 34.43639]]}}, {"type": "Feature", "properties": {"kind": "coast", "i": 11179}, "geometry": {"type": "LineString", "coordinates": [[141.19769, 41.27275], [141.24838, 41.2247], [141.27923, 41.16168], [141.27262, 41.13513], [141.24838, 41.11023], [141.24397, 41.07036]]}}, {"type": "Feature", "properties": {"kind": "coast", "i": 12236}, "geometry": {"type": "LineString", "coordinates": [[138.47824, 37.34238], [138.44739, 37.32485], [138.43637, 37.32485], [138.38128, 37.27401], [138.29753, 37.21261], [138.28652, 37.2091], [138.28652, 37.20384]]}}, {"type": "Feature", "properties": {"kind": "coast", "i": 11697}, "geometry": {"type": "LineString", "coordinates": [[144.00529, 42.92092], [144.14633, 42.97737], [144.23007, 42.99833]]}}, {"type": "Feature", "properties": {"kind": "coast", "i": 10838}, "geometry": {"type": "LineString", "coordinates": [[133.41839, 34.45093], [133.40958, 34.45638], [133.40958, 34.46365], [133.40738, 34.46001], [133.41178, 34.47092], [133.40958, 34.47818], [133.37873, 34.48182], [133.43382, 34.47818], [133.41619, 34.47818], [133.41399, 34.4582], [133.44264, 34.44548], [133.44484, 34.48363]]}}, {"type": "Feature", "properties": {"kind": "coast", "i": 11315}, "geometry": {"type": "LineString", "coordinates": [[140.77457, 42.52101], [140.78559, 42.51776], [140.78559, 42.51289], [140.77898, 42.51614], [140.78118, 42.49989], [140.80101, 42.49989], [140.83848, 42.47064], [140.87374, 42.45926], [140.90239, 42.41535], [140.909, 42.37954]]}}, {"type": "Feature", "properties": {"kind": "coast", "i": 9759}, "geometry": {"type": "LineString", "coordinates": [[135.40399, 34.598], [135.4106, 34.55445], [135.40619, 34.549], [135.40399, 34.55263], [135.40619, 34.54719], [135.38415, 34.51814], [135.37975, 34.53085], [135.36652, 34.51632], [135.37975, 34.51088], [135.37093, 34.5018], [135.37093, 34.48908], [135.37754, 34.48545], [135.37314, 34.48182], [135.37754, 34.47818], [135.37534, 34.47273], [135.36652, 34.48], [135.36873, 34.47092], [135.37314, 34.47092], [135.36212, 34.46546]]}}, {"type": "Feature", "properties": {"kind": "coast", "i": 10417}, "geometry": {"type": "LineString", "coordinates": [[139.82254, 39.85988], [139.83136, 39.86834], [139.83797, 39.86665], [139.83797, 39.86327], [139.84678, 39.86327], [139.84458, 39.86834], [139.85119, 39.86327], [139.86221, 39.86665], [139.86, 39.87172], [139.85119, 39.87341], [139.8578, 39.8768], [139.84678, 39.87849], [139.8578, 39.87849], [139.84899, 39.88187], [139.86, 39.88525], [139.85119, 39.88694], [139.86221, 39.89709], [139.91289, 39.90216], [139.94595, 39.89202]]}}, {"type": "Feature", "properties": {"kind": "coast", "i": 11094}, "geometry": {"type": "LineString", "coordinates": [[141.65607, 44.20949], [141.65828, 44.16366], [141.65387, 44.15418], [141.65387, 44.15892], [141.65387, 44.13994], [141.66269, 44.04339], [141.66048, 44.01012], [141.65167, 43.99902], [141.65167, 43.99426]]}}, {"type": "Feature", "properties": {"kind": "coast", "i": 10392}, "geometry": {"type": "LineString", "coordinates": [[137.84135, 37.04394], [137.84576, 37.04921], [137.81271, 37.02986], [137.70031, 36.99467], [137.6364, 36.97882]]}}, {"type": "Feature", "properties": {"kind": "coast", "i": 11149}, "geometry": {"type": "LineString", "coordinates": [[141.15582, 43.14644], [141.10073, 43.16733], [141.05665, 43.18019], [141.04122, 43.17858], [141.01257, 43.19144], [141.01698, 43.19305], [141.01037, 43.19465], [141.01257, 43.19947], [141.00156, 43.20269], [141.02139, 43.22357], [141.01257, 43.23159], [141.01698, 43.23802]]}}, {"type": "Feature", "properties": {"kind": "coast", "i": 11146}, "geometry": {"type": "LineString", "coordinates": [[141.79271, 44.64229], [141.7883, 44.58582], [141.78169, 44.56698], [141.76847, 44.55756], [141.76406, 44.534], [141.75965, 44.53557], [141.76406, 44.52615], [141.76186, 44.47899], [141.74863, 44.43337]]}}, {"type": "Feature", "properties": {"kind": "coast", "i": 11558}, "geometry": {"type": "LineString", "coordinates": [[141.26821, 38.41559], [141.26821, 38.41905], [141.28584, 38.41905], [141.27482, 38.41387], [141.26601, 38.39832], [141.27703, 38.40869], [141.28584, 38.40869], [141.28364, 38.39832], [141.29466, 38.40005], [141.29466, 38.41387], [141.34094, 38.40523], [141.32771, 38.41214], [141.35636, 38.41387], [141.36518, 38.41214], [141.36297, 38.40351], [141.36518, 38.41041]]}}, {"type": "Feature", "properties": {"kind": "coast", "i": 12203}, "geometry": {"type": "LineString", "coordinates": [[141.39603, 41.0903], [141.40044, 41.10192], [141.39383, 41.10358], [141.39823, 41.10192], [141.39383, 41.11355], [141.39823, 41.12683], [141.39162, 41.13347], [141.39823, 41.13679], [141.38942, 41.14509], [141.38942, 41.16666], [141.39162, 41.18159], [141.39823, 41.1849], [141.39383, 41.18822], [141.40044, 41.18324], [141.39383, 41.19154], [141.40044, 41.2048], [141.40925, 41.20978], [141.39823, 41.20646], [141.40044, 41.21143], [141.40485, 41.20978], [141.40264, 41.21806], [141.40925, 41.2247], [141.40264, 41.2247], [141.40925, 41.2247]]}}, {"type": "Feature", "properties": {"kind": "coast", "i": 10404}, "geometry": {"type": "LineString", "coordinates": [[139.00274, 37.9079], [138.87712, 37.84353], [138.84186, 37.81568], [138.81762, 37.78782]]}}, {"type": "Feature", "properties": {"kind": "coast", "i": 11650}, "geometry": {"type": "LineString", "coordinates": [[143.39044, 42.41535], [143.4235, 42.46251], [143.43672, 42.47227], [143.43231, 42.47714], [143.43672, 42.47227], [143.43892, 42.48364], [143.52487, 42.57297]]}}, {"type": "Feature", "properties": {"kind": "coast", "i": 11142}, "geometry": {"type": "LineString", "coordinates": [[143.27584, 44.40032], [143.23177, 44.42393], [143.22736, 44.43023], [143.23397, 44.4318], [143.22295, 44.44124], [143.20973, 44.44282], [143.10175, 44.49786]]}}, {"type": "Feature", "properties": {"kind": "coast", "i": 10368}, "geometry": {"type": "LineString", "coordinates": [[137.40942, 36.8978], [137.41823, 36.8837], [137.41823, 36.87136], [137.40942, 36.85902], [137.41162, 36.84667], [137.39179, 36.82374], [137.39399, 36.80786], [137.34771, 36.78139], [137.33449, 36.76197], [137.30143, 36.75668]]}}, {"type": "Feature", "properties": {"kind": "coast", "i": 11092}, "geometry": {"type": "LineString", "coordinates": [[140.52554, 42.99833], [140.52113, 42.99833], [140.51893, 42.98866], [140.51232, 42.98705], [140.51452, 42.98382], [140.50791, 42.98543], [140.51012, 42.99672], [140.5035, 42.9806], [140.41756, 42.94189], [140.40213, 42.92414], [140.39111, 42.92253], [140.3823, 42.90639]]}}, {"type": "Feature", "properties": {"kind": "coast", "i": 10548}, "geometry": {"type": "LineString", "coordinates": [[133.08342, 34.30542], [133.068, 34.26718], [133.08342, 34.25625], [133.09444, 34.25625], [133.11207, 34.26536], [133.11868, 34.27629], [133.14292, 34.28539], [133.14953, 34.29632], [133.14292, 34.3127], [133.13411, 34.31634], [133.09885, 34.3036]]}}, {"type": "Feature", "properties": {"kind": "coast", "i": 12320}, "geometry": {"type": "LineString", "coordinates": [[138.08597, 37.15994], [138.05732, 37.13711], [138.05071, 37.13711], [138.05292, 37.13183], [138.05071, 37.13535], [138.04851, 37.12656], [138.02206, 37.11426], [138.00664, 37.11426], [138.00003, 37.10899], [137.99562, 37.11075], [137.99782, 37.11426], [137.97358, 37.09493], [137.95154, 37.08614], [137.9295, 37.07032]]}}, {"type": "Feature", "properties": {"kind": "coast", "i": 11275}, "geometry": {"type": "LineString", "coordinates": [[140.53656, 42.58757], [140.58284, 42.56648], [140.59827, 42.57459], [140.66218, 42.58757], [140.69964, 42.58595], [140.71066, 42.58108], [140.71286, 42.57297], [140.72608, 42.57134]]}}, {"type": "Feature", "properties": {"kind": "coast", "i": 12263}, "geometry": {"type": "LineString", "coordinates": [[141.03902, 37.45268], [141.03902, 37.47192], [141.04563, 37.47891], [141.04122, 37.47891], [141.04122, 37.48416], [141.04563, 37.48066], [141.04122, 37.48416], [141.03241, 37.52961], [141.02359, 37.63789]]}}, {"type": "Feature", "properties": {"kind": "coast", "i": 8659}, "geometry": {"type": "LineString", "coordinates": [[133.2443, 33.95334], [133.23548, 33.95517], [133.23548, 33.95152], [133.20022, 33.94603], [133.19802, 33.93323], [133.19581, 33.94603], [133.17818, 33.94786], [133.18039, 33.94055], [133.17157, 33.94055], [133.17598, 33.92592], [133.16716, 33.94055], [133.14072, 33.92409], [133.13411, 33.92958], [133.1275, 33.92043], [133.12529, 33.93141]]}}, {"type": "Feature", "properties": {"kind": "coast", "i": 8611}, "geometry": {"type": "LineString", "coordinates": [[133.5991, 34.04287], [133.59249, 34.03374], [133.57927, 34.03191], [133.57927, 34.02278], [133.57486, 34.02278], [133.57266, 34.0173], [133.56825, 34.02278], [133.56384, 34.0173], [133.57045, 34.0173], [133.56164, 34.01547], [133.56164, 34.00817], [133.55282, 34.01365], [133.55503, 34.00086], [133.54621, 34.00817], [133.54181, 34.00269], [133.55282, 33.99538], [133.55062, 33.99172], [133.54401, 33.98442], [133.5374, 33.99538], [133.53299, 33.98807], [133.5396, 33.98259], [133.53299, 33.98624], [133.52417, 33.97528]]}}, {"type": "Feature", "properties": {"kind": "coast", "i": 11145}, "geometry": {"type": "LineString", "coordinates": [[142.50452, 45.05944], [142.48249, 45.061], [142.34585, 45.17452]]}}, {"type": "Feature", "properties": {"kind": "coast", "i": 11079}, "geometry": {"type": "LineString", "coordinates": [[144.25872, 44.04814], [144.26313, 44.05765], [144.25211, 44.0624], [144.25872, 44.08615], [144.24991, 44.10989], [144.2455, 44.11305], [144.23669, 44.10672], [144.21244, 44.10197], [144.1309, 44.11463]]}}, {"type": "Feature", "properties": {"kind": "coast", "i": 11189}, "geometry": {"type": "LineString", "coordinates": [[141.32551, 45.14655], [141.32992, 45.15121], [141.32551, 45.18384], [141.30347, 45.2149], [141.28364, 45.22421], [141.28143, 45.23042], [141.27042, 45.23508], [141.2638, 45.23042], [141.25499, 45.23508], [141.23075, 45.23508], [141.22854, 45.24284], [141.23295, 45.24749], [141.22634, 45.24439], [141.21532, 45.2506]]}}, {"type": "Feature", "properties": {"kind": "coast", "i": 11337}, "geometry": {"type": "LineString", "coordinates": [[141.78389, 40.31511], [141.77508, 40.32183], [141.77287, 40.34535], [141.76406, 40.34703], [141.77067, 40.34871], [141.75524, 40.35543], [141.75524, 40.36886], [141.731, 40.389], [141.72219, 40.39908], [141.72219, 40.40914], [141.68252, 40.45108]]}}, {"type": "Feature", "properties": {"kind": "coast", "i": 10419}, "geometry": {"type": "LineString", "coordinates": [[138.6854, 37.54359], [138.65675, 37.52087], [138.6303, 37.48591], [138.61708, 37.48416], [138.61708, 37.47192], [138.60606, 37.45093], [138.59945, 37.44043], [138.59063, 37.43868], [138.59945, 37.44043], [138.59063, 37.42468], [138.58623, 37.43868]]}}, {"type": "Feature", "properties": {"kind": "coast", "i": 12610}, "geometry": {"type": "LineString", "coordinates": [[141.00156, 41.89911], [140.96189, 41.91551], [140.95307, 41.92535], [140.95087, 41.93683], [140.93765, 41.93846], [140.93324, 41.95486], [140.909, 41.97452], [140.909, 41.98763], [140.86492, 42.00892]]}}, {"type": "Feature", "properties": {"kind": "coast", "i": 11109}, "geometry": {"type": "LineString", "coordinates": [[142.05055, 45.40244], [142.03512, 45.41791], [142.03512, 45.43028], [142.0241, 45.43647], [142.0197, 45.45348], [141.99325, 45.46275], [141.97782, 45.47511], [141.96901, 45.48439], [141.9624, 45.51065], [141.95138, 45.51837], [141.94477, 45.51682], [141.94256, 45.52146], [141.94697, 45.523], [141.93816, 45.523]]}}, {"type": "Feature", "properties": {"kind": "coast", "i": 11244}, "geometry": {"type": "LineString", "coordinates": [[140.07377, 41.79404], [140.06716, 41.76117], [140.00986, 41.69209], [140.00325, 41.65259], [139.99664, 41.64929], [139.99443, 41.62953]]}}, {"type": "Feature", "properties": {"kind": "coast", "i": 9512}, "geometry": {"type": "LineString", "coordinates": [[135.44586, 34.61069], [135.44806, 34.60525], [135.43704, 34.60525], [135.44806, 34.60162], [135.44586, 34.598], [135.42382, 34.60525], [135.42603, 34.59255], [135.43704, 34.58893], [135.45908, 34.58893], [135.46129, 34.59437], [135.4701, 34.5853], [135.45247, 34.58893], [135.45027, 34.58711], [135.46569, 34.58348], [135.45027, 34.58348], [135.45688, 34.5726], [135.45467, 34.57623]]}}, {"type": "Feature", "properties": {"kind": "coast", "i": 11118}, "geometry": {"type": "LineString", "coordinates": [[141.76406, 44.80827], [141.77728, 44.75665], [141.78389, 44.72847], [141.77949, 44.72534], [141.7861, 44.72221], [141.77728, 44.72534], [141.7883, 44.69402], [141.79271, 44.64229]]}}, {"type": "Feature", "properties": {"kind": "coast", "i": 12365}, "geometry": {"type": "LineString", "coordinates": [[131.67301, 34.04287], [131.67742, 34.04287], [131.67962, 34.05383], [131.69064, 34.05383], [131.68844, 34.04652], [131.69725, 34.04652], [131.69725, 34.05383], [131.70827, 34.05383], [131.71047, 34.0593], [131.71929, 34.05748], [131.73912, 34.06113], [131.74353, 34.06478], [131.74133, 34.07208], [131.74574, 34.06478], [131.75235, 34.07026], [131.75235, 34.06478], [131.76116, 34.06843], [131.73472, 34.04835], [131.73692, 34.0447], [131.74353, 34.052]]}}, {"type": "Feature", "properties": {"kind": "coast", "i": 12313}, "geometry": {"type": "LineString", "coordinates": [[141.41807, 42.57459], [141.52385, 42.6119], [141.59878, 42.62488]]}}, {"type": "Feature", "properties": {"kind": "coast", "i": 11849}, "geometry": {"type": "LineString", "coordinates": [[130.69895, 31.55539], [130.70776, 31.53473], [130.69674, 31.5291], [130.69895, 31.49528], [130.69233, 31.48776], [130.69233, 31.47837], [130.69674, 31.47837], [130.70335, 31.45957], [130.73641, 31.44641], [130.76065, 31.41444]]}}, {"type": "Feature", "properties": {"kind": "coast", "i": 12013}, "geometry": {"type": "LineString", "coordinates": [[141.60759, 43.90383], [141.59878, 43.88477], [141.58996, 43.88159], [141.57674, 43.86888], [141.56572, 43.86729], [141.56131, 43.85935], [141.55029, 43.86094], [141.53487, 43.8514], [141.53046, 43.85617], [141.53487, 43.85458], [141.53707, 43.85935], [141.51063, 43.85617], [141.4952, 43.8371], [141.47316, 43.83392]]}}, {"type": "Feature", "properties": {"kind": "coast", "i": 11138}, "geometry": {"type": "LineString", "coordinates": [[141.57894, 45.17608], [141.58996, 45.15121], [141.62963, 45.08901], [141.62522, 45.0859], [141.63183, 45.08279], [141.62522, 45.08434], [141.63624, 45.07812], [141.66489, 45.03142]]}}, {"type": "Feature", "properties": {"kind": "coast", "i": 9126}, "geometry": {"type": "LineString", "coordinates": [[132.69115, 33.92775], [132.68895, 33.92226], [132.68013, 33.92043], [132.67793, 33.90946], [132.6603, 33.91129], [132.65369, 33.90032], [132.6625, 33.90214], [132.66911, 33.89666], [132.66471, 33.87287], [132.68895, 33.8747], [132.67132, 33.893], [132.67793, 33.90214], [132.69335, 33.90397], [132.69335, 33.91495]]}}, {"type": "Feature", "properties": {"kind": "coast", "i": 11609}, "geometry": {"type": "LineString", "coordinates": [[143.27144, 42.01874], [143.29127, 42.02856], [143.28907, 42.03347], [143.29788, 42.04002], [143.29568, 42.04329], [143.30008, 42.04329], [143.30008, 42.04002], [143.3111, 42.0482], [143.31331, 42.06293], [143.3089, 42.07602], [143.32433, 42.11527], [143.31771, 42.12344], [143.32653, 42.15122], [143.32433, 42.15939]]}}, {"type": "Feature", "properties": {"kind": "coast", "i": 11064}, "geometry": {"type": "LineString", "coordinates": [[141.00376, 37.14413], [140.99935, 37.17048], [141.00596, 37.2091], [141.01257, 37.22841], [141.02359, 37.22841], [141.0302, 37.23718], [141.02359, 37.22841], [141.01698, 37.23016], [141.02139, 37.23367], [141.01698, 37.23542], [141.02359, 37.23542], [141.02139, 37.24069], [141.01257, 37.24069], [141.01478, 37.26349]]}}, {"type": "Feature", "properties": {"kind": "coast", "i": 12204}, "geometry": {"type": "LineString", "coordinates": [[141.40925, 41.2247], [141.40485, 41.22801], [141.40925, 41.2479], [141.44231, 41.35551], [141.45112, 41.3737], [141.45994, 41.38032], [141.45994, 41.39024]]}}]}